{"type":"FeatureCollection","crs":{"type":"name","properties":{"name":"urn:ogc:def:crs:OGC:1.3:CRS84"}},"features":[{"type":"Feature","geometry":{"type":"LineString","coordinates":[[37.6400295,55.699945,-3.0],[37.6365766,55.7002308,-3.0],[37.6363159,55.7002681,-3.0]]},"properties":{"id":"new_v2_1","object_type":"heat_network","variant_id":"v2","start_node_id":"108","end_node_id":"ch_v2_1","flow_tph":224.94,"diameter":250,"length":236.26,"laying_method":"base","depth_start":3.0,"depth_end":3.0,"cost":3.1971412E7}},{"type":"Feature","geometry":{"type":"LineString","coordinates":[[37.6363159,55.7002681,-3.0],[37.6362058,55.7003083,-3.0],[37.6353521,55.6996038,-3.0],[37.6353053,55.6995678,-3.0]]},"properties":{"id":"new_v2_2","object_type":"heat_network","variant_id":"v2","start_node_id":"ch_v2_1","end_node_id":"ch_v2_2","flow_tph":177.24,"diameter":250,"length":108.22,"laying_method":"base","depth_start":3.0,"depth_end":3.0,"cost":1.4644462E7}},{"type":"Feature","geometry":{"type":"LineString","coordinates":[[37.6353053,55.6995678,-3.0],[37.6355578,55.6993203,-3.0],[37.6354171,55.6986147,-3.0]]},"properties":{"id":"new_v2_3","object_type":"heat_network","variant_id":"v2","start_node_id":"ch_v2_2","end_node_id":"5","flow_tph":26.09,"diameter":125,"length":110.82,"laying_method":"base","depth_start":3.0,"depth_end":3.0,"cost":1.0780003E7}},{"type":"Feature","geometry":{"type":"LineString","coordinates":[[37.6353053,55.6995678,-3.0],[37.6342244,55.6996596,-3.0]]},"properties":{"id":"new_v2_4","object_type":"heat_network","variant_id":"v2","start_node_id":"ch_v2_2","end_node_id":"ch_v2_3","flow_tph":151.15,"diameter":200,"length":68.71,"laying_method":"base","depth_start":3.0,"depth_end":3.0,"cost":8264046.0}},{"type":"Feature","geometry":{"type":"LineString","coordinates":[[37.6342244,55.6996596,-3.0],[37.6345829,55.6998545,-3.0]]},"properties":{"id":"new_v2_5","object_type":"heat_network","variant_id":"v2","start_node_id":"ch_v2_3","end_node_id":"2","flow_tph":18.76,"diameter":100,"length":31.28,"laying_method":"base","depth_start":3.0,"depth_end":3.0,"cost":2806941.0}},{"type":"Feature","geometry":{"type":"LineString","coordinates":[[37.6342244,55.6996596,-3.0],[37.6341194,55.699592,-3.0]]},"properties":{"id":"new_v2_6","object_type":"heat_network","variant_id":"v2","start_node_id":"ch_v2_3","end_node_id":"ch_v2_4","flow_tph":132.39,"diameter":200,"length":10.01,"laying_method":"base","depth_start":3.0,"depth_end":3.0,"cost":1203953.0}},{"type":"Feature","geometry":{"type":"LineString","coordinates":[[37.6341193,55.699592,-3.0],[37.6331393,55.6986531,-3.0]]},"properties":{"id":"new_v2_7","object_type":"heat_network","variant_id":"v2","start_node_id":"ch_v2_4","end_node_id":"12","flow_tph":40.0,"diameter":125,"length":121.31,"laying_method":"base","depth_start":3.0,"depth_end":3.0,"cost":1.180043E7}},{"type":"Feature","geometry":{"type":"LineString","coordinates":[[37.6341193,55.699592,-3.0],[37.6344054,55.6994811,-3.0]]},"properties":{"id":"new_v2_8","object_type":"heat_network","variant_id":"v2","start_node_id":"ch_v2_4","end_node_id":"1","flow_tph":24.87,"diameter":125,"length":21.81,"laying_method":"base","depth_start":3.0,"depth_end":3.0,"cost":2121568.0}},{"type":"Feature","geometry":{"type":"LineString","coordinates":[[37.6341193,55.699592,-3.0],[37.6334562,55.6997066,-3.0]]},"properties":{"id":"new_v2_9","object_type":"heat_network","variant_id":"v2","start_node_id":"ch_v2_4","end_node_id":"ch_v2_5","flow_tph":67.52,"diameter":200,"length":43.59,"laying_method":"base","depth_start":3.0,"depth_end":3.0,"cost":5242477.0}},{"type":"Feature","geometry":{"type":"LineString","coordinates":[[37.6334562,55.6997066,-3.0],[37.6330085,55.7000976,-3.0],[37.632928,55.700128,-3.0]]},"properties":{"id":"new_v2_10","object_type":"heat_network","variant_id":"v2","start_node_id":"ch_v2_5","end_node_id":"ch_v2_6","flow_tph":63.44,"diameter":150,"length":57.92,"laying_method":"base","depth_start":3.0,"depth_end":3.0,"cost":6110441.0}},{"type":"Feature","geometry":{"type":"LineString","coordinates":[[37.632928,55.700128,-3.0],[37.6328466,55.7002757,-3.0]]},"properties":{"id":"new_v2_11","object_type":"heat_network","variant_id":"v2","start_node_id":"ch_v2_6","end_node_id":"3","flow_tph":29.42,"diameter":125,"length":17.22,"laying_method":"base","depth_start":3.0,"depth_end":3.0,"cost":1675075.0}},{"type":"Feature","geometry":{"type":"LineString","coordinates":[[37.632928,55.700128,-3.0],[37.6328805,55.7000996,-3.0],[37.6328113,55.7000984,-3.0],[37.6322764,55.7001816,-3.0]]},"properties":{"id":"new_v2_12","object_type":"heat_network","variant_id":"v2","start_node_id":"ch_v2_6","end_node_id":"ch_v2_7","flow_tph":34.02,"diameter":125,"length":43.57,"laying_method":"base","depth_start":3.0,"depth_end":3.0,"cost":4238212.0}},{"type":"Feature","geometry":{"type":"LineString","coordinates":[[37.6322764,55.7001816,-3.0],[37.6322026,55.7003144,-3.0]]},"properties":{"id":"new_v2_13","object_type":"heat_network","variant_id":"v2","start_node_id":"ch_v2_7","end_node_id":"8","flow_tph":18.03,"diameter":100,"length":15.49,"laying_method":"base","depth_start":3.0,"depth_end":3.0,"cost":1390197.0}},{"type":"Feature","geometry":{"type":"LineString","coordinates":[[37.6322764,55.7001816,-3.0],[37.6320123,55.7000483,-3.0]]},"properties":{"id":"new_v2_14","object_type":"heat_network","variant_id":"v2","start_node_id":"ch_v2_7","end_node_id":"6","flow_tph":15.99,"diameter":100,"length":22.27,"laying_method":"base","depth_start":3.0,"depth_end":3.0,"cost":1998688.0}},{"type":"Feature","geometry":{"type":"LineString","coordinates":[[37.6334562,55.6997066,-3.0],[37.6332045,55.6995751,-3.0]]},"properties":{"id":"new_v2_15","object_type":"heat_network","variant_id":"v2","start_node_id":"ch_v2_5","end_node_id":"11","flow_tph":4.08,"diameter":65,"length":21.56,"laying_method":"base","depth_start":3.0,"depth_end":3.0,"cost":1695063.0}},{"type":"Feature","geometry":{"type":"LineString","coordinates":[[37.6363159,55.7002681,-3.0],[37.6363819,55.7001552,-3.0]]},"properties":{"id":"new_v2_16","object_type":"heat_network","variant_id":"v2","start_node_id":"ch_v2_1","end_node_id":"4","flow_tph":47.7,"diameter":150,"length":13.24,"laying_method":"base","depth_start":3.0,"depth_end":3.0,"cost":1396429.0}},{"type":"Feature","geometry":{"type":"LineString","coordinates":[[37.6384618,55.6976385,-3.0],[37.6381158,55.6978876,-3.0],[37.6373593,55.6977222,-3.0],[37.636067,55.697059,-3.0]]},"properties":{"id":"new_v2_17","object_type":"heat_network","variant_id":"v2","start_node_id":"106","end_node_id":"ch_v2_8","flow_tph":139.06,"diameter":200,"length":195.99,"laying_method":"base","depth_start":3.0,"depth_end":3.0,"cost":2.3572112E7}},{"type":"Feature","geometry":{"type":"LineString","coordinates":[[37.636067,55.697059,-3.0],[37.6360932,55.6972966,-3.0]]},"properties":{"id":"new_v2_18","object_type":"heat_network","variant_id":"v2","start_node_id":"ch_v2_8","end_node_id":"10","flow_tph":33.14,"diameter":125,"length":26.49,"laying_method":"base","depth_start":3.0,"depth_end":3.0,"cost":2576641.0}},{"type":"Feature","geometry":{"type":"LineString","coordinates":[[37.636067,55.697059,-3.0],[37.6343678,55.6973945,-3.0]]},"properties":{"id":"new_v2_19","object_type":"heat_network","variant_id":"v2","start_node_id":"ch_v2_8","end_node_id":"ch_v2_9","flow_tph":105.92,"diameter":200,"length":113.15,"laying_method":"base","depth_start":3.0,"depth_end":3.0,"cost":1.3608868E7}},{"type":"Feature","geometry":{"type":"LineString","coordinates":[[37.6343678,55.6973945,-3.0],[37.6344463,55.6972524,-3.0]]},"properties":{"id":"new_v2_20","object_type":"heat_network","variant_id":"v2","start_node_id":"ch_v2_9","end_node_id":"9","flow_tph":34.53,"diameter":125,"length":16.57,"laying_method":"base","depth_start":3.0,"depth_end":3.0,"cost":1611372.0}},{"type":"Feature","geometry":{"type":"LineString","coordinates":[[37.6343678,55.6973945,-3.0],[37.6335558,55.6976814,-3.0]]},"properties":{"id":"new_v2_21","object_type":"heat_network","variant_id":"v2","start_node_id":"ch_v2_9","end_node_id":"ch_v2_10","flow_tph":71.39,"diameter":200,"length":60.21,"laying_method":"base","depth_start":3.0,"depth_end":3.0,"cost":7241758.0}},{"type":"Feature","geometry":{"type":"LineString","coordinates":[[37.6335557,55.6976814,-3.0],[37.63289,55.6976974,-3.0],[37.6324571,55.6974625,-3.0],[37.6320344,55.6970457,-3.0]]},"properties":{"id":"new_v2_22","object_type":"heat_network","variant_id":"v2","start_node_id":"ch_v2_10","end_node_id":"15","flow_tph":31.89,"diameter":125,"length":133.09,"laying_method":"base","depth_start":3.0,"depth_end":3.0,"cost":1.294587E7}},{"type":"Feature","geometry":{"type":"LineString","coordinates":[[37.6335557,55.6976814,-3.0],[37.6337524,55.6974723,-3.0]]},"properties":{"id":"new_v2_23","object_type":"heat_network","variant_id":"v2","start_node_id":"ch_v2_10","end_node_id":"14","flow_tph":19.73,"diameter":100,"length":26.35,"laying_method":"base","depth_start":3.0,"depth_end":3.0,"cost":2364721.0}},{"type":"Feature","geometry":{"type":"LineString","coordinates":[[37.6335557,55.6976814,-3.0],[37.6339011,55.6977226,-3.0]]},"properties":{"id":"new_v2_24","object_type":"heat_network","variant_id":"v2","start_node_id":"ch_v2_10","end_node_id":"13","flow_tph":19.77,"diameter":100,"length":22.19,"laying_method":"base","depth_start":3.0,"depth_end":3.0,"cost":1991155.0}},{"type":"Feature","geometry":{"type":"LineString","coordinates":[[37.6386338,55.6978998,-3.0],[37.6382803,55.6979568,-3.0]]},"properties":{"id":"new_v2_25","object_type":"heat_network","variant_id":"v2","start_node_id":"ch_v2_12","end_node_id":"7","flow_tph":27.82,"diameter":125,"length":23.11,"laying_method":"base","depth_start":3.0,"depth_end":3.0,"cost":2247695.0}},{"type":"Feature","geometry":{"type":"LineString","coordinates":[[37.6386338,55.6978998,-3.0],[37.6392011,55.6978376,-3.0]]},"properties":{"id":"new_v2_26","object_type":"heat_network","variant_id":"v2","start_node_id":"ch_v2_12","end_node_id":"ch_v2_11","flow_tph":96.9,"diameter":200,"length":36.33,"laying_method":"base","depth_start":3.0,"depth_end":3.0,"cost":4369564.0}},{"type":"Feature","geometry":{"type":"LineString","coordinates":[[37.6392011,55.6978376,-3.0],[37.6395381,55.6968518,-3.0]]},"properties":{"id":"new_v2_27","object_type":"heat_network","variant_id":"v2","start_node_id":"ch_v2_11","end_node_id":"17","flow_tph":20.63,"diameter":100,"length":111.75,"laying_method":"base","depth_start":3.0,"depth_end":3.0,"cost":1.0028894E7}},{"type":"Feature","geometry":{"type":"LineString","coordinates":[[37.6392011,55.6978376,-3.0],[37.6407645,55.6984074,-3.0]]},"properties":{"id":"new_v2_28","object_type":"heat_network","variant_id":"v2","start_node_id":"ch_v2_11","end_node_id":"16","flow_tph":76.27,"diameter":200,"length":116.96,"laying_method":"base","depth_start":3.0,"depth_end":3.0,"cost":1.4066854E7}},{"type":"Feature","geometry":{"type":"Point","coordinates":[37.6400295,55.699945]},"properties":{"id":"tie_v2_1","object_type":"tie_in","variant_id":"v2","existing_object_id":"108","existing_object_type":"heat_chamber","existing_diameter":300,"required_diameter":250,"cost":5000000.0}},{"type":"Feature","geometry":{"type":"Point","coordinates":[37.6384618,55.6976385]},"properties":{"id":"tie_v2_2","object_type":"tie_in","variant_id":"v2","existing_object_id":"106","existing_object_type":"heat_chamber","existing_diameter":300,"required_diameter":200,"cost":5000000.0}},{"type":"Feature","geometry":{"type":"Point","coordinates":[37.6386338,55.6978998]},"properties":{"id":"tie_v2_3","object_type":"tie_in","variant_id":"v2","existing_object_id":"126","existing_object_type":"heat_network","existing_diameter":300,"required_diameter":200,"cost":5000000.0}},{"type":"Feature","geometry":{"type":"LineString","coordinates":[[37.6406796,55.7000142],[37.6405646,55.6998151],[37.6400295,55.699945]]},"properties":{"id":"recon_1","object_type":"heat_network_reconstruction","variant_id":"v2","existing_object_id":"121","existing_flow_tph":0.0,"added_flow_tph":488.72,"calculated_flow_tph":488.72,"existing_diameter":300,"required_diameter":400,"length":59.91,"cost":1.6255756E7}},{"type":"Feature","geometry":{"type":"Point","coordinates":[37.6363159,55.7002681]},"properties":{"id":"ch_v2_1","object_type":"heat_chamber","variant_id":"v2","diameter":250,"cost":5000000.0}},{"type":"Feature","geometry":{"type":"Point","coordinates":[37.6353053,55.6995678]},"properties":{"id":"ch_v2_2","object_type":"heat_chamber","variant_id":"v2","diameter":250,"cost":5000000.0}},{"type":"Feature","geometry":{"type":"Point","coordinates":[37.6342244,55.6996596]},"properties":{"id":"ch_v2_3","object_type":"heat_chamber","variant_id":"v2","diameter":200,"cost":3000000.0}},{"type":"Feature","geometry":{"type":"Point","coordinates":[37.6341193,55.699592]},"properties":{"id":"ch_v2_4","object_type":"heat_chamber","variant_id":"v2","diameter":200,"cost":3000000.0}},{"type":"Feature","geometry":{"type":"Point","coordinates":[37.6334562,55.6997066]},"properties":{"id":"ch_v2_5","object_type":"heat_chamber","variant_id":"v2","diameter":200,"cost":3000000.0}},{"type":"Feature","geometry":{"type":"Point","coordinates":[37.632928,55.700128]},"properties":{"id":"ch_v2_6","object_type":"heat_chamber","variant_id":"v2","diameter":150,"cost":3000000.0}},{"type":"Feature","geometry":{"type":"Point","coordinates":[37.6322764,55.7001816]},"properties":{"id":"ch_v2_7","object_type":"heat_chamber","variant_id":"v2","diameter":125,"cost":3000000.0}},{"type":"Feature","geometry":{"type":"Point","coordinates":[37.636067,55.697059]},"properties":{"id":"ch_v2_8","object_type":"heat_chamber","variant_id":"v2","diameter":200,"cost":3000000.0}},{"type":"Feature","geometry":{"type":"Point","coordinates":[37.6343678,55.6973945]},"properties":{"id":"ch_v2_9","object_type":"heat_chamber","variant_id":"v2","diameter":200,"cost":3000000.0}},{"type":"Feature","geometry":{"type":"Point","coordinates":[37.6335557,55.6976814]},"properties":{"id":"ch_v2_10","object_type":"heat_chamber","variant_id":"v2","diameter":200,"cost":3000000.0}},{"type":"Feature","geometry":{"type":"Point","coordinates":[37.6392011,55.6978376]},"properties":{"id":"ch_v2_11","object_type":"heat_chamber","variant_id":"v2","diameter":200,"cost":3000000.0}},{"type":"Feature","geometry":{"type":"Point","coordinates":[37.6386338,55.6978998]},"properties":{"id":"ch_v2_12","object_type":"heat_chamber","variant_id":"v2","diameter":300,"cost":5000000.0}},{"type":"Feature","geometry":{"type":"Point","coordinates":[37.6400295,55.699945]},"properties":{"id":"chrec_1","object_type":"heat_chamber_reconstruction","variant_id":"v2","existing_object_id":"108","existing_diameter":300,"required_diameter":400,"cost":5000000.0}},{"type":"Feature","geometry":null,"properties":{"id":"summary_v2","object_type":"variant_summary","variant_id":"v2","rank":1,"construction_cost":2.03964901E8,"chamber_construction_cost":4.2E7,"tie_in_cost":1.5E7,"reconstruction_cost":1.6255756E7,"chamber_reconstruction_cost":5000000.0,"unconnected_penalty":0.0,"calculated_cost":2.82220657E8,"new_network_length":1825.47,"reconstruction_length":59.91,"length":1885.38,"score":13.558,"unconnected_oks_ids":[]}},{"type":"Feature","geometry":{"type":"LineString","coordinates":[[37.6383782,55.6975066,-3.0],[37.6383496,55.6975144,-3.0]]},"properties":{"id":"new_v3_1","object_type":"heat_network","variant_id":"v3","start_node_id":"ch_v3_13","end_node_id":"tn_v3_1","flow_tph":364.0,"diameter":300,"length":2.0,"laying_method":"special","depth_start":3.0,"depth_end":3.0,"cost":315046.0}},{"type":"Feature","geometry":{"type":"LineString","coordinates":[[37.6383496,55.6975144,-3.0],[37.6367082,55.6979607,-3.0]]},"properties":{"id":"new_v3_2","object_type":"heat_network","variant_id":"v3","start_node_id":"tn_v3_1","end_node_id":"ch_v3_1","flow_tph":364.0,"diameter":300,"length":114.51,"laying_method":"base","depth_start":3.0,"depth_end":3.0,"cost":1.7178967E7}},{"type":"Feature","geometry":{"type":"LineString","coordinates":[[37.6367082,55.6979607,-3.0],[37.6360932,55.6972966,-3.0]]},"properties":{"id":"new_v3_3","object_type":"heat_network","variant_id":"v3","start_node_id":"ch_v3_1","end_node_id":"10","flow_tph":33.14,"diameter":125,"length":83.42,"laying_method":"base","depth_start":3.0,"depth_end":3.0,"cost":8114438.0}},{"type":"Feature","geometry":{"type":"LineString","coordinates":[[37.6367082,55.6979607,-3.0],[37.6345494,55.6984244,-3.0]]},"properties":{"id":"new_v3_4","object_type":"heat_network","variant_id":"v3","start_node_id":"ch_v3_1","end_node_id":"ch_v3_2","flow_tph":330.86,"diameter":300,"length":145.19,"laying_method":"base","depth_start":3.0,"depth_end":3.0,"cost":2.1781093E7}},{"type":"Feature","geometry":{"type":"LineString","coordinates":[[37.6345494,55.6984244,-3.0],[37.6345052,55.6984339,-3.0]]},"properties":{"id":"new_v3_5","object_type":"heat_network","variant_id":"v3","start_node_id":"ch_v3_2","end_node_id":"ch_v3_3","flow_tph":304.77,"diameter":300,"length":2.97,"laying_method":"base","depth_start":3.0,"depth_end":3.0,"cost":445504.0}},{"type":"Feature","geometry":{"type":"LineString","coordinates":[[37.6345052,55.6984339,-3.0],[37.6344694,55.6984566,-3.0],[37.6335968,55.6986359,-3.0],[37.633511,55.6986682,-3.0]]},"properties":{"id":"new_v3_6","object_type":"heat_network","variant_id":"v3","start_node_id":"ch_v3_3","end_node_id":"ch_v3_4","flow_tph":198.85,"diameter":250,"length":68.23,"laying_method":"base","depth_start":3.0,"depth_end":3.0,"cost":9233088.0}},{"type":"Feature","geometry":{"type":"LineString","coordinates":[[37.633511,55.6986682,-3.0],[37.6331394,55.6986531,-3.0]]},"properties":{"id":"new_v3_7","object_type":"heat_network","variant_id":"v3","start_node_id":"ch_v3_4","end_node_id":"12","flow_tph":40.0,"diameter":125,"length":23.42,"laying_method":"base","depth_start":3.0,"depth_end":3.0,"cost":2278180.0}},{"type":"Feature","geometry":{"type":"LineString","coordinates":[[37.633511,55.6986682,-3.0],[37.6341222,55.6995613,-3.0]]},"properties":{"id":"new_v3_8","object_type":"heat_network","variant_id":"v3","start_node_id":"ch_v3_4","end_node_id":"ch_v3_5","flow_tph":158.85,"diameter":250,"length":106.57,"laying_method":"base","depth_start":3.0,"depth_end":3.0,"cost":1.4421372E7}},{"type":"Feature","geometry":{"type":"LineString","coordinates":[[37.6341222,55.6995613,-3.0],[37.6344054,55.6994811,-3.0]]},"properties":{"id":"new_v3_9","object_type":"heat_network","variant_id":"v3","start_node_id":"ch_v3_5","end_node_id":"1","flow_tph":24.87,"diameter":125,"length":19.92,"laying_method":"base","depth_start":3.0,"depth_end":3.0,"cost":1937235.0}},{"type":"Feature","geometry":{"type":"LineString","coordinates":[[37.6341222,55.6995613,-3.0],[37.6341122,55.6996226,-3.0]]},"properties":{"id":"new_v3_10","object_type":"heat_network","variant_id":"v3","start_node_id":"ch_v3_5","end_node_id":"ch_v3_6","flow_tph":133.98,"diameter":200,"length":6.86,"laying_method":"base","depth_start":3.0,"depth_end":3.0,"cost":824783.0}},{"type":"Feature","geometry":{"type":"LineString","coordinates":[[37.6341122,55.6996226,-3.0],[37.6334612,55.6997199,-3.0]]},"properties":{"id":"new_v3_11","object_type":"heat_network","variant_id":"v3","start_node_id":"ch_v3_6","end_node_id":"ch_v3_7","flow_tph":67.52,"diameter":200,"length":42.33,"laying_method":"base","depth_start":3.0,"depth_end":3.0,"cost":5090684.0}},{"type":"Feature","geometry":{"type":"LineString","coordinates":[[37.6334612,55.6997199,-3.0],[37.6332045,55.6995751,-3.0]]},"properties":{"id":"new_v3_12","object_type":"heat_network","variant_id":"v3","start_node_id":"ch_v3_7","end_node_id":"11","flow_tph":4.08,"diameter":65,"length":22.81,"laying_method":"base","depth_start":3.0,"depth_end":3.0,"cost":1793507.0}},{"type":"Feature","geometry":{"type":"LineString","coordinates":[[37.6334612,55.6997199,-3.0],[37.6329778,55.7000986,-3.0]]},"properties":{"id":"new_v3_13","object_type":"heat_network","variant_id":"v3","start_node_id":"ch_v3_7","end_node_id":"ch_v3_8","flow_tph":63.44,"diameter":150,"length":51.96,"laying_method":"base","depth_start":3.0,"depth_end":3.0,"cost":5481809.0}},{"type":"Feature","geometry":{"type":"LineString","coordinates":[[37.6329778,55.7000986,-3.0],[37.632832,55.7000988,-3.0],[37.6322765,55.7001816,-3.0]]},"properties":{"id":"new_v3_14","object_type":"heat_network","variant_id":"v3","start_node_id":"ch_v3_8","end_node_id":"ch_v3_9","flow_tph":34.02,"diameter":125,"length":45.28,"laying_method":"base","depth_start":3.0,"depth_end":3.0,"cost":4404612.0}},{"type":"Feature","geometry":{"type":"LineString","coordinates":[[37.6322764,55.7001816,-3.0],[37.6322026,55.7003144,-3.0]]},"properties":{"id":"new_v3_15","object_type":"heat_network","variant_id":"v3","start_node_id":"ch_v3_9","end_node_id":"8","flow_tph":18.03,"diameter":100,"length":15.49,"laying_method":"base","depth_start":3.0,"depth_end":3.0,"cost":1390197.0}},{"type":"Feature","geometry":{"type":"LineString","coordinates":[[37.6322764,55.7001816,-3.0],[37.6320123,55.7000483,-3.0]]},"properties":{"id":"new_v3_16","object_type":"heat_network","variant_id":"v3","start_node_id":"ch_v3_9","end_node_id":"6","flow_tph":15.99,"diameter":100,"length":22.27,"laying_method":"base","depth_start":3.0,"depth_end":3.0,"cost":1998688.0}},{"type":"Feature","geometry":{"type":"LineString","coordinates":[[37.6329778,55.7000986,-3.0],[37.6328466,55.7002758,-3.0]]},"properties":{"id":"new_v3_17","object_type":"heat_network","variant_id":"v3","start_node_id":"ch_v3_8","end_node_id":"3","flow_tph":29.42,"diameter":125,"length":21.38,"laying_method":"base","depth_start":3.0,"depth_end":3.0,"cost":2079500.0}},{"type":"Feature","geometry":{"type":"LineString","coordinates":[[37.6341122,55.6996226,-3.0],[37.6344919,55.6997028,-3.0]]},"properties":{"id":"new_v3_18","object_type":"heat_network","variant_id":"v3","start_node_id":"ch_v3_6","end_node_id":"ch_v3_10","flow_tph":66.46,"diameter":200,"length":25.48,"laying_method":"base","depth_start":3.0,"depth_end":3.0,"cost":3064607.0}},{"type":"Feature","geometry":{"type":"LineString","coordinates":[[37.634492,55.6997028,-3.0],[37.6345829,55.6998544,-3.0]]},"properties":{"id":"new_v3_19","object_type":"heat_network","variant_id":"v3","start_node_id":"ch_v3_10","end_node_id":"2","flow_tph":18.76,"diameter":100,"length":17.82,"laying_method":"base","depth_start":3.0,"depth_end":3.0,"cost":1599309.0}},{"type":"Feature","geometry":{"type":"LineString","coordinates":[[37.634492,55.6997028,-3.0],[37.6351573,55.6994539,-3.0],[37.6363819,55.7001552,-3.0]]},"properties":{"id":"new_v3_20","object_type":"heat_network","variant_id":"v3","start_node_id":"ch_v3_10","end_node_id":"4","flow_tph":47.7,"diameter":150,"length":159.78,"laying_method":"base","depth_start":3.0,"depth_end":3.0,"cost":1.6857583E7}},{"type":"Feature","geometry":{"type":"LineString","coordinates":[[37.6345052,55.6984339,-3.0],[37.634533,55.6984209,-3.0],[37.6345298,55.6983811,-3.0],[37.6338971,55.6974417,-3.0]]},"properties":{"id":"new_v3_21","object_type":"heat_network","variant_id":"v3","start_node_id":"ch_v3_3","end_node_id":"ch_v3_11","flow_tph":105.92,"diameter":200,"length":118.57,"laying_method":"base","depth_start":3.0,"depth_end":3.0,"cost":1.4260411E7}},{"type":"Feature","geometry":{"type":"LineString","coordinates":[[37.6338971,55.6974417,-3.0],[37.6337524,55.6974723,-3.0]]},"properties":{"id":"new_v3_22","object_type":"heat_network","variant_id":"v3","start_node_id":"ch_v3_11","end_node_id":"14","flow_tph":19.73,"diameter":100,"length":9.71,"laying_method":"base","depth_start":3.0,"depth_end":3.0,"cost":871453.0}},{"type":"Feature","geometry":{"type":"LineString","coordinates":[[37.6338971,55.6974417,-3.0],[37.6344462,55.6972524,-3.0]]},"properties":{"id":"new_v3_23","object_type":"heat_network","variant_id":"v3","start_node_id":"ch_v3_11","end_node_id":"9","flow_tph":34.53,"diameter":125,"length":40.44,"laying_method":"base","depth_start":3.0,"depth_end":3.0,"cost":3933801.0}},{"type":"Feature","geometry":{"type":"LineString","coordinates":[[37.6338971,55.6974417,-3.0],[37.6339261,55.6976297,-3.0],[37.6338765,55.6976429,-3.0]]},"properties":{"id":"new_v3_24","object_type":"heat_network","variant_id":"v3","start_node_id":"ch_v3_11","end_node_id":"ch_v3_12","flow_tph":51.66,"diameter":150,"length":24.45,"laying_method":"base","depth_start":3.0,"depth_end":3.0,"cost":2579646.0}},{"type":"Feature","geometry":{"type":"LineString","coordinates":[[37.6338765,55.6976429,-3.0],[37.6326378,55.6977307,-3.0],[37.6320344,55.6970457,-3.0]]},"properties":{"id":"new_v3_25","object_type":"heat_network","variant_id":"v3","start_node_id":"ch_v3_12","end_node_id":"15","flow_tph":31.89,"diameter":125,"length":163.63,"laying_method":"base","depth_start":3.0,"depth_end":3.0,"cost":1.5916645E7}},{"type":"Feature","geometry":{"type":"LineString","coordinates":[[37.6338765,55.6976429,-3.0],[37.633901,55.6977226,-3.0]]},"properties":{"id":"new_v3_26","object_type":"heat_network","variant_id":"v3","start_node_id":"ch_v3_12","end_node_id":"13","flow_tph":19.77,"diameter":100,"length":9.0,"laying_method":"base","depth_start":3.0,"depth_end":3.0,"cost":807732.0}},{"type":"Feature","geometry":{"type":"LineString","coordinates":[[37.6345494,55.6984244,-3.0],[37.6354171,55.6986147,-3.0]]},"properties":{"id":"new_v3_27","object_type":"heat_network","variant_id":"v3","start_node_id":"ch_v3_2","end_node_id":"5","flow_tph":26.09,"diameter":125,"length":58.51,"laying_method":"base","depth_start":3.0,"depth_end":3.0,"cost":5691363.0}},{"type":"Feature","geometry":{"type":"LineString","coordinates":[[37.6384618,55.6976385,-3.0],[37.6382803,55.6979567,-3.0]]},"properties":{"id":"new_v3_28","object_type":"heat_network","variant_id":"v3","start_node_id":"106","end_node_id":"7","flow_tph":27.82,"diameter":125,"length":37.21,"laying_method":"base","depth_start":3.0,"depth_end":3.0,"cost":3619603.0}},{"type":"Feature","geometry":{"type":"LineString","coordinates":[[37.6384618,55.6976385,-3.0],[37.6390954,55.697615,-3.0]]},"properties":{"id":"new_v3_29","object_type":"heat_network","variant_id":"v3","start_node_id":"106","end_node_id":"ch_v3_14","flow_tph":96.9,"diameter":200,"length":39.91,"laying_method":"base","depth_start":3.0,"depth_end":3.0,"cost":4800070.0}},{"type":"Feature","geometry":{"type":"LineString","coordinates":[[37.6390954,55.697615,-3.0],[37.6395381,55.6968518,-3.0]]},"properties":{"id":"new_v3_30","object_type":"heat_network","variant_id":"v3","start_node_id":"ch_v3_14","end_node_id":"17","flow_tph":20.63,"diameter":100,"length":89.39,"laying_method":"base","depth_start":3.0,"depth_end":3.0,"cost":8022274.0}},{"type":"Feature","geometry":{"type":"LineString","coordinates":[[37.6390954,55.697615,-3.0],[37.6407644,55.6984074,-3.0]]},"properties":{"id":"new_v3_31","object_type":"heat_network","variant_id":"v3","start_node_id":"ch_v3_14","end_node_id":"16","flow_tph":76.27,"diameter":200,"length":137.06,"laying_method":"base","depth_start":3.0,"depth_end":3.0,"cost":1.6484892E7}},{"type":"Feature","geometry":{"type":"Point","coordinates":[37.6383782,55.6975066]},"properties":{"id":"tie_v3_1","object_type":"tie_in","variant_id":"v3","existing_object_id":"127","existing_object_type":"heat_network","existing_diameter":300,"required_diameter":300,"cost":5000000.0}},{"type":"Feature","geometry":{"type":"Point","coordinates":[37.6384618,55.6976385]},"properties":{"id":"tie_v3_2","object_type":"tie_in","variant_id":"v3","existing_object_id":"106","existing_object_type":"heat_chamber","existing_diameter":300,"required_diameter":200,"cost":5000000.0}},{"type":"Feature","geometry":{"type":"LineString","coordinates":[[37.6406796,55.7000142],[37.6405646,55.6998151],[37.6400295,55.699945]]},"properties":{"id":"recon_1","object_type":"heat_network_reconstruction","variant_id":"v3","existing_object_id":"121","existing_flow_tph":0.0,"added_flow_tph":488.72,"calculated_flow_tph":488.72,"existing_diameter":300,"required_diameter":400,"length":59.91,"cost":1.6255756E7}},{"type":"Feature","geometry":{"type":"LineString","coordinates":[[37.6398999,55.6997659],[37.6397741,55.6995751],[37.6401382,55.699495],[37.639988,55.6992689]]},"properties":{"id":"recon_2","object_type":"heat_network_reconstruction","variant_id":"v3","existing_object_id":"122","existing_flow_tph":0.0,"added_flow_tph":488.72,"calculated_flow_tph":488.72,"existing_diameter":300,"required_diameter":400,"length":74.1,"cost":2.0105752E7}},{"type":"Feature","geometry":{"type":"LineString","coordinates":[[37.6395571,55.6986516],[37.6392519,55.698192],[37.6391324,55.6980217]]},"properties":{"id":"recon_3","object_type":"heat_network_reconstruction","variant_id":"v3","existing_object_id":"123","existing_flow_tph":0.0,"added_flow_tph":488.72,"calculated_flow_tph":488.72,"existing_diameter":300,"required_diameter":400,"length":75.03,"cost":2.0355563E7}},{"type":"Feature","geometry":{"type":"LineString","coordinates":[[37.639988,55.6992689],[37.6395706,55.6986686],[37.6395571,55.6986516]]},"properties":{"id":"recon_4","object_type":"heat_network_reconstruction","variant_id":"v3","existing_object_id":"124","existing_flow_tph":0.0,"added_flow_tph":488.72,"calculated_flow_tph":488.72,"existing_diameter":300,"required_diameter":400,"length":73.86,"cost":2.0039106E7}},{"type":"Feature","geometry":{"type":"LineString","coordinates":[[37.6400295,55.699945],[37.6399417,55.699839],[37.6398999,55.6997659]]},"properties":{"id":"recon_5","object_type":"heat_network_reconstruction","variant_id":"v3","existing_object_id":"125","existing_flow_tph":0.0,"added_flow_tph":488.72,"calculated_flow_tph":488.72,"existing_diameter":300,"required_diameter":400,"length":21.57,"cost":5851954.0}},{"type":"Feature","geometry":{"type":"LineString","coordinates":[[37.6391324,55.6980217],[37.6387712,55.6981121],[37.6385013,55.6976952],[37.6384618,55.6976385]]},"properties":{"id":"recon_6","object_type":"heat_network_reconstruction","variant_id":"v3","existing_object_id":"126","existing_flow_tph":0.0,"added_flow_tph":488.72,"calculated_flow_tph":488.72,"existing_diameter":300,"required_diameter":400,"length":81.02,"cost":2.1981951E7}},{"type":"Feature","geometry":{"type":"Point","coordinates":[37.6367082,55.6979607]},"properties":{"id":"ch_v3_1","object_type":"heat_chamber","variant_id":"v3","diameter":300,"cost":5000000.0}},{"type":"Feature","geometry":{"type":"Point","coordinates":[37.6345494,55.6984244]},"properties":{"id":"ch_v3_2","object_type":"heat_chamber","variant_id":"v3","diameter":300,"cost":5000000.0}},{"type":"Feature","geometry":{"type":"Point","coordinates":[37.6345052,55.6984339]},"properties":{"id":"ch_v3_3","object_type":"heat_chamber","variant_id":"v3","diameter":300,"cost":5000000.0}},{"type":"Feature","geometry":{"type":"Point","coordinates":[37.633511,55.6986682]},"properties":{"id":"ch_v3_4","object_type":"heat_chamber","variant_id":"v3","diameter":250,"cost":5000000.0}},{"type":"Feature","geometry":{"type":"Point","coordinates":[37.6341222,55.6995613]},"properties":{"id":"ch_v3_5","object_type":"heat_chamber","variant_id":"v3","diameter":250,"cost":5000000.0}},{"type":"Feature","geometry":{"type":"Point","coordinates":[37.6341122,55.6996226]},"properties":{"id":"ch_v3_6","object_type":"heat_chamber","variant_id":"v3","diameter":200,"cost":3000000.0}},{"type":"Feature","geometry":{"type":"Point","coordinates":[37.6334612,55.6997199]},"properties":{"id":"ch_v3_7","object_type":"heat_chamber","variant_id":"v3","diameter":200,"cost":3000000.0}},{"type":"Feature","geometry":{"type":"Point","coordinates":[37.6329778,55.7000986]},"properties":{"id":"ch_v3_8","object_type":"heat_chamber","variant_id":"v3","diameter":150,"cost":3000000.0}},{"type":"Feature","geometry":{"type":"Point","coordinates":[37.6322764,55.7001816]},"properties":{"id":"ch_v3_9","object_type":"heat_chamber","variant_id":"v3","diameter":125,"cost":3000000.0}},{"type":"Feature","geometry":{"type":"Point","coordinates":[37.634492,55.6997028]},"properties":{"id":"ch_v3_10","object_type":"heat_chamber","variant_id":"v3","diameter":200,"cost":3000000.0}},{"type":"Feature","geometry":{"type":"Point","coordinates":[37.6338971,55.6974417]},"properties":{"id":"ch_v3_11","object_type":"heat_chamber","variant_id":"v3","diameter":200,"cost":3000000.0}},{"type":"Feature","geometry":{"type":"Point","coordinates":[37.6338765,55.6976429]},"properties":{"id":"ch_v3_12","object_type":"heat_chamber","variant_id":"v3","diameter":150,"cost":3000000.0}},{"type":"Feature","geometry":{"type":"Point","coordinates":[37.6383782,55.6975066]},"properties":{"id":"ch_v3_13","object_type":"heat_chamber","variant_id":"v3","diameter":300,"cost":5000000.0}},{"type":"Feature","geometry":{"type":"Point","coordinates":[37.6390954,55.697615]},"properties":{"id":"ch_v3_14","object_type":"heat_chamber","variant_id":"v3","diameter":200,"cost":3000000.0}},{"type":"Feature","geometry":{"type":"Point","coordinates":[37.6384618,55.6976385]},"properties":{"id":"chrec_1","object_type":"heat_chamber_reconstruction","variant_id":"v3","existing_object_id":"106","existing_diameter":300,"required_diameter":400,"cost":5000000.0}},{"type":"Feature","geometry":{"type":"Point","coordinates":[37.6383496,55.6975144]},"properties":{"id":"tn_v3_1","object_type":"technical_node","variant_id":"v3"}},{"type":"Feature","geometry":null,"properties":{"id":"summary_v3","object_type":"variant_summary","variant_id":"v3","rank":2,"construction_cost":1.97278092E8,"chamber_construction_cost":5.4E7,"tie_in_cost":1.0E7,"reconstruction_cost":1.04590082E8,"chamber_reconstruction_cost":5000000.0,"unconnected_penalty":0.0,"calculated_cost":3.70868174E8,"new_network_length":1725.57,"reconstruction_length":385.49,"length":2111.06,"score":16.717,"unconnected_oks_ids":[]}},{"type":"Feature","geometry":{"type":"LineString","coordinates":[[37.6392777,55.698231,-3.0],[37.6390941,55.6981386,-3.0]]},"properties":{"id":"new_v1_1.1","object_type":"heat_network","variant_id":"v1","start_node_id":"ch_v1_13","end_node_id":"tnd_v1_1","flow_tph":412.45,"diameter":300,"length":15.45,"laying_method":"base","depth_start":3.0,"depth_end":3.0,"cost":2318586.0}},{"type":"Feature","geometry":{"type":"LineString","coordinates":[[37.6390941,55.6981386,-3.0],[37.6389753,55.6980789,-2.0]]},"properties":{"id":"new_v1_1.2","object_type":"heat_network","variant_id":"v1","start_node_id":"tnd_v1_1","end_node_id":"tnd_v1_2","flow_tph":412.45,"diameter":300,"length":10.0,"laying_method":"base","depth_start":3.0,"depth_end":2.0,"cost":1500220.0}},{"type":"Feature","geometry":{"type":"LineString","coordinates":[[37.6389753,55.6980789,-2.0],[37.6389278,55.698055,-2.0]]},"properties":{"id":"new_v1_1.3","object_type":"heat_network","variant_id":"v1","start_node_id":"tnd_v1_2","end_node_id":"tnd_v1_3","flow_tph":412.45,"diameter":300,"length":4.0,"laying_method":"base","depth_start":2.0,"depth_end":2.0,"cost":600088.0}},{"type":"Feature","geometry":{"type":"LineString","coordinates":[[37.6389278,55.698055,-2.0],[37.6386645,55.6979226,-2.0]]},"properties":{"id":"new_v1_1.4","object_type":"heat_network","variant_id":"v1","start_node_id":"tnd_v1_3","end_node_id":"tnd_v1_4","flow_tph":412.45,"diameter":300,"length":22.16,"laying_method":"base","depth_start":2.0,"depth_end":2.0,"cost":3324598.0}},{"type":"Feature","geometry":{"type":"LineString","coordinates":[[37.6386645,55.6979226,-2.0],[37.638617,55.6978987,-2.0]]},"properties":{"id":"new_v1_1.5","object_type":"heat_network","variant_id":"v1","start_node_id":"tnd_v1_4","end_node_id":"tnd_v1_5","flow_tph":412.45,"diameter":300,"length":4.0,"laying_method":"base","depth_start":2.0,"depth_end":2.0,"cost":600088.0}},{"type":"Feature","geometry":{"type":"LineString","coordinates":[[37.638617,55.6978987,-2.0],[37.6384982,55.6978389,-3.0]]},"properties":{"id":"new_v1_1.6","object_type":"heat_network","variant_id":"v1","start_node_id":"tnd_v1_5","end_node_id":"tnd_v1_6","flow_tph":412.45,"diameter":300,"length":10.0,"laying_method":"base","depth_start":2.0,"depth_end":3.0,"cost":1500220.0}},{"type":"Feature","geometry":{"type":"LineString","coordinates":[[37.6384982,55.6978389,-3.0],[37.6384737,55.6978266,-3.0]]},"properties":{"id":"new_v1_1.7","object_type":"heat_network","variant_id":"v1","start_node_id":"tnd_v1_6","end_node_id":"ch_v1_1","flow_tph":412.45,"diameter":300,"length":2.06,"laying_method":"base","depth_start":3.0,"depth_end":3.0,"cost":309017.0}},{"type":"Feature","geometry":{"type":"LineString","coordinates":[[37.6384737,55.6978266,-3.0],[37.6382803,55.6979568,-3.0]]},"properties":{"id":"new_v1_2","object_type":"heat_network","variant_id":"v1","start_node_id":"ch_v1_1","end_node_id":"7","flow_tph":27.82,"diameter":125,"length":18.92,"laying_method":"base","depth_start":3.0,"depth_end":3.0,"cost":1840120.0}},{"type":"Feature","geometry":{"type":"LineString","coordinates":[[37.6384737,55.6978266,-3.0],[37.6395381,55.6968518,-3.0]]},"properties":{"id":"new_v1_3","object_type":"heat_network","variant_id":"v1","start_node_id":"ch_v1_1","end_node_id":"17","flow_tph":20.63,"diameter":100,"length":127.47,"laying_method":"base","depth_start":3.0,"depth_end":3.0,"cost":1.143976E7}},{"type":"Feature","geometry":{"type":"LineString","coordinates":[[37.6384737,55.6978266,-3.0],[37.6373557,55.6977338,-3.0]]},"properties":{"id":"new_v1_4","object_type":"heat_network","variant_id":"v1","start_node_id":"ch_v1_1","end_node_id":"ch_v1_2","flow_tph":364.0,"diameter":300,"length":71.04,"laying_method":"base","depth_start":3.0,"depth_end":3.0,"cost":1.0656883E7}},{"type":"Feature","geometry":{"type":"LineString","coordinates":[[37.6373557,55.6977338,-3.0],[37.635118,55.6985245,-3.0]]},"properties":{"id":"new_v1_5","object_type":"heat_network","variant_id":"v1","start_node_id":"ch_v1_2","end_node_id":"ch_v1_3","flow_tph":330.86,"diameter":300,"length":165.92,"laying_method":"base","depth_start":3.0,"depth_end":3.0,"cost":2.489165E7}},{"type":"Feature","geometry":{"type":"LineString","coordinates":[[37.6351179,55.6985245,-3.0],[37.634725,55.6986695,-3.0],[37.6346113,55.6985729,-3.0],[37.6340652,55.6985357,-3.0],[37.6337906,55.6985948,-3.0],[37.6337431,55.6986049,-3.0],[37.6335968,55.6986359,-3.0],[37.633511,55.6986682,-3.0]]},"properties":{"id":"new_v1_6","object_type":"heat_network","variant_id":"v1","start_node_id":"ch_v1_3","end_node_id":"ch_v1_4","flow_tph":198.85,"diameter":250,"length":114.95,"laying_method":"base","depth_start":3.0,"depth_end":3.0,"cost":1.5555379E7}},{"type":"Feature","geometry":{"type":"LineString","coordinates":[[37.633511,55.6986682,-3.0],[37.6331394,55.6986531,-3.0]]},"properties":{"id":"new_v1_7","object_type":"heat_network","variant_id":"v1","start_node_id":"ch_v1_4","end_node_id":"12","flow_tph":40.0,"diameter":125,"length":23.42,"laying_method":"base","depth_start":3.0,"depth_end":3.0,"cost":2278180.0}},{"type":"Feature","geometry":{"type":"LineString","coordinates":[[37.633511,55.6986682,-3.0],[37.6341222,55.6995613,-3.0]]},"properties":{"id":"new_v1_8","object_type":"heat_network","variant_id":"v1","start_node_id":"ch_v1_4","end_node_id":"ch_v1_5","flow_tph":158.85,"diameter":250,"length":106.57,"laying_method":"base","depth_start":3.0,"depth_end":3.0,"cost":1.4421372E7}},{"type":"Feature","geometry":{"type":"LineString","coordinates":[[37.6341222,55.6995613,-3.0],[37.6344054,55.6994811,-3.0]]},"properties":{"id":"new_v1_9","object_type":"heat_network","variant_id":"v1","start_node_id":"ch_v1_5","end_node_id":"1","flow_tph":24.87,"diameter":125,"length":19.92,"laying_method":"base","depth_start":3.0,"depth_end":3.0,"cost":1937268.0}},{"type":"Feature","geometry":{"type":"LineString","coordinates":[[37.6341222,55.6995613,-3.0],[37.6341122,55.6996225,-3.0]]},"properties":{"id":"new_v1_10","object_type":"heat_network","variant_id":"v1","start_node_id":"ch_v1_5","end_node_id":"ch_v1_6","flow_tph":133.98,"diameter":200,"length":6.84,"laying_method":"base","depth_start":3.0,"depth_end":3.0,"cost":822681.0}},{"type":"Feature","geometry":{"type":"LineString","coordinates":[[37.6341122,55.6996225,-3.0],[37.6334595,55.6997194,-3.0]]},"properties":{"id":"new_v1_11","object_type":"heat_network","variant_id":"v1","start_node_id":"ch_v1_6","end_node_id":"ch_v1_7","flow_tph":67.52,"diameter":200,"length":42.42,"laying_method":"base","depth_start":3.0,"depth_end":3.0,"cost":5101911.0}},{"type":"Feature","geometry":{"type":"LineString","coordinates":[[37.6334595,55.6997194,-3.0],[37.6332045,55.6995751,-3.0]]},"properties":{"id":"new_v1_12","object_type":"heat_network","variant_id":"v1","start_node_id":"ch_v1_7","end_node_id":"11","flow_tph":4.08,"diameter":65,"length":22.69,"laying_method":"base","depth_start":3.0,"depth_end":3.0,"cost":1784137.0}},{"type":"Feature","geometry":{"type":"LineString","coordinates":[[37.6334595,55.6997194,-3.0],[37.6329777,55.7000985,-3.0]]},"properties":{"id":"new_v1_13","object_type":"heat_network","variant_id":"v1","start_node_id":"ch_v1_7","end_node_id":"ch_v1_8","flow_tph":63.44,"diameter":150,"length":51.94,"laying_method":"base","depth_start":3.0,"depth_end":3.0,"cost":5480034.0}},{"type":"Feature","geometry":{"type":"LineString","coordinates":[[37.6329777,55.7000986,-3.0],[37.6329581,55.7001244,-3.0],[37.6328466,55.7002758,-3.0]]},"properties":{"id":"new_v1_14","object_type":"heat_network","variant_id":"v1","start_node_id":"ch_v1_8","end_node_id":"3","flow_tph":29.42,"diameter":125,"length":21.38,"laying_method":"base","depth_start":3.0,"depth_end":3.0,"cost":2079333.0}},{"type":"Feature","geometry":{"type":"LineString","coordinates":[[37.6329777,55.7000986,-3.0],[37.632832,55.7000988,-3.0],[37.6322764,55.7001816,-3.0]]},"properties":{"id":"new_v1_15","object_type":"heat_network","variant_id":"v1","start_node_id":"ch_v1_8","end_node_id":"ch_v1_9","flow_tph":34.02,"diameter":125,"length":45.28,"laying_method":"base","depth_start":3.0,"depth_end":3.0,"cost":4404167.0}},{"type":"Feature","geometry":{"type":"LineString","coordinates":[[37.6322764,55.7001816,-3.0],[37.6322026,55.7003144,-3.0]]},"properties":{"id":"new_v1_16","object_type":"heat_network","variant_id":"v1","start_node_id":"ch_v1_9","end_node_id":"8","flow_tph":18.03,"diameter":100,"length":15.49,"laying_method":"base","depth_start":3.0,"depth_end":3.0,"cost":1390197.0}},{"type":"Feature","geometry":{"type":"LineString","coordinates":[[37.6322764,55.7001816,-3.0],[37.6320123,55.7000483,-3.0]]},"properties":{"id":"new_v1_17","object_type":"heat_network","variant_id":"v1","start_node_id":"ch_v1_9","end_node_id":"6","flow_tph":15.99,"diameter":100,"length":22.27,"laying_method":"base","depth_start":3.0,"depth_end":3.0,"cost":1998688.0}},{"type":"Feature","geometry":{"type":"LineString","coordinates":[[37.6341122,55.6996225,-3.0],[37.634492,55.6997027,-3.0]]},"properties":{"id":"new_v1_18","object_type":"heat_network","variant_id":"v1","start_node_id":"ch_v1_6","end_node_id":"ch_v1_10","flow_tph":66.46,"diameter":200,"length":25.49,"laying_method":"base","depth_start":3.0,"depth_end":3.0,"cost":3065648.0}},{"type":"Feature","geometry":{"type":"LineString","coordinates":[[37.634492,55.6997027,-3.0],[37.6345829,55.6998545,-3.0]]},"properties":{"id":"new_v1_19","object_type":"heat_network","variant_id":"v1","start_node_id":"ch_v1_10","end_node_id":"2","flow_tph":18.76,"diameter":100,"length":17.83,"laying_method":"base","depth_start":3.0,"depth_end":3.0,"cost":1600185.0}},{"type":"Feature","geometry":{"type":"LineString","coordinates":[[37.634492,55.6997027,-3.0],[37.6351573,55.6994539,-3.0],[37.6363818,55.7001552,-3.0]]},"properties":{"id":"new_v1_20","object_type":"heat_network","variant_id":"v1","start_node_id":"ch_v1_10","end_node_id":"4","flow_tph":47.7,"diameter":150,"length":159.77,"laying_method":"base","depth_start":3.0,"depth_end":3.0,"cost":1.6856853E7}},{"type":"Feature","geometry":{"type":"LineString","coordinates":[[37.6351179,55.6985245,-3.0],[37.6354171,55.6986147,-3.0]]},"properties":{"id":"new_v1_21","object_type":"heat_network","variant_id":"v1","start_node_id":"ch_v1_3","end_node_id":"5","flow_tph":26.09,"diameter":125,"length":21.32,"laying_method":"base","depth_start":3.0,"depth_end":3.0,"cost":2073724.0}},{"type":"Feature","geometry":{"type":"LineString","coordinates":[[37.6351179,55.6985245,-3.0],[37.6348634,55.6982713,-3.0],[37.6340431,55.6976592,-3.0]]},"properties":{"id":"new_v1_22","object_type":"heat_network","variant_id":"v1","start_node_id":"ch_v1_3","end_node_id":"ch_v1_11","flow_tph":105.92,"diameter":200,"length":117.85,"laying_method":"base","depth_start":3.0,"depth_end":3.0,"cost":1.4173987E7}},{"type":"Feature","geometry":{"type":"LineString","coordinates":[[37.6340431,55.6976592,-3.0],[37.6339011,55.6977226,-3.0]]},"properties":{"id":"new_v1_23","object_type":"heat_network","variant_id":"v1","start_node_id":"ch_v1_11","end_node_id":"13","flow_tph":19.77,"diameter":100,"length":11.38,"laying_method":"base","depth_start":3.0,"depth_end":3.0,"cost":1021151.0}},{"type":"Feature","geometry":{"type":"LineString","coordinates":[[37.6340431,55.6976592,-3.0],[37.6338848,55.6975542,-3.0]]},"properties":{"id":"new_v1_24","object_type":"heat_network","variant_id":"v1","start_node_id":"ch_v1_11","end_node_id":"ch_v1_12","flow_tph":86.15,"diameter":200,"length":15.35,"laying_method":"base","depth_start":3.0,"depth_end":3.0,"cost":1846221.0}},{"type":"Feature","geometry":{"type":"LineString","coordinates":[[37.6338848,55.6975542,-3.0],[37.6336809,55.6976088,-3.0],[37.6334956,55.6977231,-3.0],[37.63289,55.6976974,-3.0],[37.6324571,55.6974625,-3.0],[37.6320345,55.6970457,-3.0]]},"properties":{"id":"new_v1_25","object_type":"heat_network","variant_id":"v1","start_node_id":"ch_v1_12","end_node_id":"15","flow_tph":31.89,"diameter":125,"length":160.81,"laying_method":"base","depth_start":3.0,"depth_end":3.0,"cost":1.5642793E7}},{"type":"Feature","geometry":{"type":"LineString","coordinates":[[37.6338848,55.6975542,-3.0],[37.6337524,55.6974723,-3.0]]},"properties":{"id":"new_v1_26","object_type":"heat_network","variant_id":"v1","start_node_id":"ch_v1_12","end_node_id":"14","flow_tph":19.73,"diameter":100,"length":12.34,"laying_method":"base","depth_start":3.0,"depth_end":3.0,"cost":1107106.0}},{"type":"Feature","geometry":{"type":"LineString","coordinates":[[37.6338848,55.6975542,-3.0],[37.6344463,55.6972524,-3.0]]},"properties":{"id":"new_v1_27","object_type":"heat_network","variant_id":"v1","start_node_id":"ch_v1_12","end_node_id":"9","flow_tph":34.53,"diameter":125,"length":48.72,"laying_method":"base","depth_start":3.0,"depth_end":3.0,"cost":4739238.0}},{"type":"Feature","geometry":{"type":"LineString","coordinates":[[37.6373557,55.6977338,-3.0],[37.6366299,55.6977123,-3.0],[37.6360933,55.6972966,-3.0]]},"properties":{"id":"new_v1_28","object_type":"heat_network","variant_id":"v1","start_node_id":"ch_v1_2","end_node_id":"10","flow_tph":33.14,"diameter":125,"length":102.95,"laying_method":"base","depth_start":3.0,"depth_end":3.0,"cost":1.0014461E7}},{"type":"Feature","geometry":{"type":"LineString","coordinates":[[37.6392777,55.698231,-3.0],[37.6407644,55.6984074,-3.0]]},"properties":{"id":"new_v1_29","object_type":"heat_network","variant_id":"v1","start_node_id":"ch_v1_13","end_node_id":"16","flow_tph":76.27,"diameter":200,"length":95.49,"laying_method":"base","depth_start":3.0,"depth_end":3.0,"cost":1.148506E7}},{"type":"Feature","geometry":{"type":"Point","coordinates":[37.6392777,55.698231]},"properties":{"id":"tie_v1_1","object_type":"tie_in","variant_id":"v1","existing_object_id":"123","existing_object_type":"heat_network","existing_diameter":300,"required_diameter":300,"cost":5000000.0}},{"type":"Feature","geometry":{"type":"LineString","coordinates":[[37.6406796,55.7000142],[37.6405646,55.6998151],[37.6400295,55.699945]]},"properties":{"id":"recon_1","object_type":"heat_network_reconstruction","variant_id":"v1","existing_object_id":"121","existing_flow_tph":0.0,"added_flow_tph":488.72,"calculated_flow_tph":488.72,"existing_diameter":300,"required_diameter":400,"length":59.91,"cost":1.6255756E7}},{"type":"Feature","geometry":{"type":"LineString","coordinates":[[37.6398999,55.6997659],[37.6397741,55.6995751],[37.6401382,55.699495],[37.639988,55.6992689]]},"properties":{"id":"recon_2","object_type":"heat_network_reconstruction","variant_id":"v1","existing_object_id":"122","existing_flow_tph":0.0,"added_flow_tph":488.72,"calculated_flow_tph":488.72,"existing_diameter":300,"required_diameter":400,"length":74.1,"cost":2.0105752E7}},{"type":"Feature","geometry":{"type":"LineString","coordinates":[[37.6395571,55.6986516],[37.6392777,55.698231]]},"properties":{"id":"recon_3","object_type":"heat_network_reconstruction","variant_id":"v1","existing_object_id":"123","existing_flow_tph":0.0,"added_flow_tph":488.72,"calculated_flow_tph":488.72,"existing_diameter":300,"required_diameter":400,"length":50.0,"cost":1.356585E7}},{"type":"Feature","geometry":{"type":"LineString","coordinates":[[37.639988,55.6992689],[37.6395706,55.6986686],[37.6395571,55.6986516]]},"properties":{"id":"recon_4","object_type":"heat_network_reconstruction","variant_id":"v1","existing_object_id":"124","existing_flow_tph":0.0,"added_flow_tph":488.72,"calculated_flow_tph":488.72,"existing_diameter":300,"required_diameter":400,"length":73.86,"cost":2.0039106E7}},{"type":"Feature","geometry":{"type":"LineString","coordinates":[[37.6400295,55.699945],[37.6399417,55.699839],[37.6398999,55.6997659]]},"properties":{"id":"recon_5","object_type":"heat_network_reconstruction","variant_id":"v1","existing_object_id":"125","existing_flow_tph":0.0,"added_flow_tph":488.72,"calculated_flow_tph":488.72,"existing_diameter":300,"required_diameter":400,"length":21.57,"cost":5851954.0}},{"type":"Feature","geometry":{"type":"Point","coordinates":[37.6384737,55.6978266]},"properties":{"id":"ch_v1_1","object_type":"heat_chamber","variant_id":"v1","diameter":300,"cost":5000000.0}},{"type":"Feature","geometry":{"type":"Point","coordinates":[37.6373557,55.6977338]},"properties":{"id":"ch_v1_2","object_type":"heat_chamber","variant_id":"v1","diameter":300,"cost":5000000.0}},{"type":"Feature","geometry":{"type":"Point","coordinates":[37.6351179,55.6985245]},"properties":{"id":"ch_v1_3","object_type":"heat_chamber","variant_id":"v1","diameter":300,"cost":5000000.0}},{"type":"Feature","geometry":{"type":"Point","coordinates":[37.633511,55.6986682]},"properties":{"id":"ch_v1_4","object_type":"heat_chamber","variant_id":"v1","diameter":250,"cost":5000000.0}},{"type":"Feature","geometry":{"type":"Point","coordinates":[37.6341222,55.6995613]},"properties":{"id":"ch_v1_5","object_type":"heat_chamber","variant_id":"v1","diameter":250,"cost":5000000.0}},{"type":"Feature","geometry":{"type":"Point","coordinates":[37.6341122,55.6996225]},"properties":{"id":"ch_v1_6","object_type":"heat_chamber","variant_id":"v1","diameter":200,"cost":3000000.0}},{"type":"Feature","geometry":{"type":"Point","coordinates":[37.6334595,55.6997194]},"properties":{"id":"ch_v1_7","object_type":"heat_chamber","variant_id":"v1","diameter":200,"cost":3000000.0}},{"type":"Feature","geometry":{"type":"Point","coordinates":[37.6329777,55.7000986]},"properties":{"id":"ch_v1_8","object_type":"heat_chamber","variant_id":"v1","diameter":150,"cost":3000000.0}},{"type":"Feature","geometry":{"type":"Point","coordinates":[37.6322764,55.7001816]},"properties":{"id":"ch_v1_9","object_type":"heat_chamber","variant_id":"v1","diameter":125,"cost":3000000.0}},{"type":"Feature","geometry":{"type":"Point","coordinates":[37.634492,55.6997027]},"properties":{"id":"ch_v1_10","object_type":"heat_chamber","variant_id":"v1","diameter":200,"cost":3000000.0}},{"type":"Feature","geometry":{"type":"Point","coordinates":[37.6340431,55.6976592]},"properties":{"id":"ch_v1_11","object_type":"heat_chamber","variant_id":"v1","diameter":200,"cost":3000000.0}},{"type":"Feature","geometry":{"type":"Point","coordinates":[37.6338848,55.6975542]},"properties":{"id":"ch_v1_12","object_type":"heat_chamber","variant_id":"v1","diameter":200,"cost":3000000.0}},{"type":"Feature","geometry":{"type":"Point","coordinates":[37.6392777,55.698231]},"properties":{"id":"ch_v1_13","object_type":"heat_chamber","variant_id":"v1","diameter":300,"cost":5000000.0}},{"type":"Feature","geometry":{"type":"Point","coordinates":[37.6390941,55.6981386,-3.0]},"properties":{"id":"tnd_v1_1","object_type":"technical_node","variant_id":"v1"}},{"type":"Feature","geometry":{"type":"Point","coordinates":[37.6389753,55.6980789,-2.0]},"properties":{"id":"tnd_v1_2","object_type":"technical_node","variant_id":"v1"}},{"type":"Feature","geometry":{"type":"Point","coordinates":[37.6389278,55.698055,-2.0]},"properties":{"id":"tnd_v1_3","object_type":"technical_node","variant_id":"v1"}},{"type":"Feature","geometry":{"type":"Point","coordinates":[37.6386645,55.6979226,-2.0]},"properties":{"id":"tnd_v1_4","object_type":"technical_node","variant_id":"v1"}},{"type":"Feature","geometry":{"type":"Point","coordinates":[37.638617,55.6978987,-2.0]},"properties":{"id":"tnd_v1_5","object_type":"technical_node","variant_id":"v1"}},{"type":"Feature","geometry":{"type":"Point","coordinates":[37.6384982,55.6978389,-3.0]},"properties":{"id":"tnd_v1_6","object_type":"technical_node","variant_id":"v1"}},{"type":"Feature","geometry":{"type":"Point","coordinates":[37.6389516,55.6980669]},"properties":{"id":"cross_v1_new_v1_1.3_2","object_type":"depth_crossing","variant_id":"v1","segment_id":"new_v1_1.3","station":2.0,"utility_id":"existing-net:126","utility_type":"heat_network","passage":"above","new_depth":2.0,"utility_depth":3.0,"required_clearance":0.5,"actual_clearance":0.55}},{"type":"Feature","geometry":{"type":"Point","coordinates":[37.6386408,55.6979106]},"properties":{"id":"cross_v1_new_v1_1.5_2","object_type":"depth_crossing","variant_id":"v1","segment_id":"new_v1_1.5","station":2.01,"utility_id":"existing-net:126","utility_type":"heat_network","passage":"above","new_depth":2.0,"utility_depth":3.0,"required_clearance":0.5,"actual_clearance":0.55}},{"type":"Feature","geometry":{"type":"Point","coordinates":[37.6385445,55.6977618]},"properties":{"id":"cross_v1_new_v1_3_8","object_type":"depth_crossing","variant_id":"v1","segment_id":"new_v1_3","station":8.47,"utility_id":"existing-net:126","utility_type":"heat_network","passage":"above","new_depth":3.0,"utility_depth":3.0,"required_clearance":0.5,"actual_clearance":-0.18}},{"type":"Feature","geometry":null,"properties":{"id":"summary_v1","object_type":"variant_summary","variant_id":"v1","rank":3,"construction_cost":1.99861004E8,"chamber_construction_cost":5.1E7,"tie_in_cost":5000000.0,"reconstruction_cost":7.5818418E7,"chamber_reconstruction_cost":0.0,"unconnected_penalty":0.0,"calculated_cost":3.31679422E8,"new_network_length":1733.49,"reconstruction_length":279.44,"length":2012.93,"score":15.326,"unconnected_oks_ids":[]}}]}