{"type":"FeatureCollection","crs":{"type":"name","properties":{"name":"urn:ogc:def:crs:OGC:1.3:CRS84"}},"features":[{"type":"Feature","geometry":{"type":"LineString","coordinates":[[37.6386247,55.6978857],[37.6407645,55.6984074]]},"properties":{"id":"new_v1_1","object_type":"heat_network","variant_id":"v1","start_node_id":"ch_v1_13","end_node_id":"16","flow_tph":76.27,"diameter":200,"length":146.5,"laying_method":"base","depth_start":null,"depth_end":null,"cost":1.7620811E7}},{"type":"Feature","geometry":{"type":"LineString","coordinates":[[37.6386247,55.6978857],[37.6384737,55.6978266]]},"properties":{"id":"new_v1_2","object_type":"heat_network","variant_id":"v1","start_node_id":"ch_v1_13","end_node_id":"ch_v1_1","flow_tph":412.45,"diameter":300,"length":11.54,"laying_method":"base","depth_start":null,"depth_end":null,"cost":1731724.0}},{"type":"Feature","geometry":{"type":"LineString","coordinates":[[37.6384737,55.6978266],[37.6373557,55.6977338]]},"properties":{"id":"new_v1_3","object_type":"heat_network","variant_id":"v1","start_node_id":"ch_v1_1","end_node_id":"ch_v1_2","flow_tph":364.0,"diameter":300,"length":71.04,"laying_method":"base","depth_start":null,"depth_end":null,"cost":1.0656883E7}},{"type":"Feature","geometry":{"type":"LineString","coordinates":[[37.6373557,55.6977338],[37.6366299,55.6977123],[37.6360932,55.6972966]]},"properties":{"id":"new_v1_4","object_type":"heat_network","variant_id":"v1","start_node_id":"ch_v1_2","end_node_id":"10","flow_tph":33.14,"diameter":125,"length":102.95,"laying_method":"base","depth_start":null,"depth_end":null,"cost":1.001469E7}},{"type":"Feature","geometry":{"type":"LineString","coordinates":[[37.6373557,55.6977338],[37.6351179,55.6985245]]},"properties":{"id":"new_v1_5","object_type":"heat_network","variant_id":"v1","start_node_id":"ch_v1_2","end_node_id":"ch_v1_3","flow_tph":330.86,"diameter":300,"length":165.92,"laying_method":"base","depth_start":null,"depth_end":null,"cost":2.4892282E7}},{"type":"Feature","geometry":{"type":"LineString","coordinates":[[37.6351179,55.6985245],[37.6348634,55.6982713],[37.6340431,55.6976592]]},"properties":{"id":"new_v1_6","object_type":"heat_network","variant_id":"v1","start_node_id":"ch_v1_3","end_node_id":"ch_v1_4","flow_tph":105.92,"diameter":200,"length":117.85,"laying_method":"base","depth_start":null,"depth_end":null,"cost":1.4173987E7}},{"type":"Feature","geometry":{"type":"LineString","coordinates":[[37.6340431,55.6976592],[37.6338848,55.6975542]]},"properties":{"id":"new_v1_7","object_type":"heat_network","variant_id":"v1","start_node_id":"ch_v1_4","end_node_id":"ch_v1_5","flow_tph":86.15,"diameter":200,"length":15.35,"laying_method":"base","depth_start":null,"depth_end":null,"cost":1846474.0}},{"type":"Feature","geometry":{"type":"LineString","coordinates":[[37.6338848,55.6975542],[37.6344463,55.6972524]]},"properties":{"id":"new_v1_8","object_type":"heat_network","variant_id":"v1","start_node_id":"ch_v1_5","end_node_id":"9","flow_tph":34.53,"diameter":125,"length":48.72,"laying_method":"base","depth_start":null,"depth_end":null,"cost":4739333.0}},{"type":"Feature","geometry":{"type":"LineString","coordinates":[[37.6338848,55.6975542],[37.6337524,55.6974723]]},"properties":{"id":"new_v1_9","object_type":"heat_network","variant_id":"v1","start_node_id":"ch_v1_5","end_node_id":"14","flow_tph":19.73,"diameter":100,"length":12.34,"laying_method":"base","depth_start":null,"depth_end":null,"cost":1107106.0}},{"type":"Feature","geometry":{"type":"LineString","coordinates":[[37.6338848,55.6975542],[37.6336809,55.6976088],[37.6334956,55.6977231],[37.63289,55.6976974],[37.6324571,55.6974625],[37.6320344,55.6970457]]},"properties":{"id":"new_v1_10","object_type":"heat_network","variant_id":"v1","start_node_id":"ch_v1_5","end_node_id":"15","flow_tph":31.89,"diameter":125,"length":160.81,"laying_method":"base","depth_start":null,"depth_end":null,"cost":1.564308E7}},{"type":"Feature","geometry":{"type":"LineString","coordinates":[[37.6340431,55.6976592],[37.6339011,55.6977226]]},"properties":{"id":"new_v1_11","object_type":"heat_network","variant_id":"v1","start_node_id":"ch_v1_4","end_node_id":"13","flow_tph":19.77,"diameter":100,"length":11.38,"laying_method":"base","depth_start":null,"depth_end":null,"cost":1021151.0}},{"type":"Feature","geometry":{"type":"LineString","coordinates":[[37.6351179,55.6985245],[37.6354171,55.6986147]]},"properties":{"id":"new_v1_12","object_type":"heat_network","variant_id":"v1","start_node_id":"ch_v1_3","end_node_id":"5","flow_tph":26.09,"diameter":125,"length":21.32,"laying_method":"base","depth_start":null,"depth_end":null,"cost":2073724.0}},{"type":"Feature","geometry":{"type":"LineString","coordinates":[[37.6351179,55.6985245],[37.634725,55.6986695],[37.6346113,55.6985729],[37.6340652,55.6985357],[37.6337906,55.6985948],[37.6337431,55.6986049],[37.6335968,55.6986359],[37.633511,55.6986682]]},"properties":{"id":"new_v1_13","object_type":"heat_network","variant_id":"v1","start_node_id":"ch_v1_3","end_node_id":"ch_v1_6","flow_tph":198.85,"diameter":250,"length":114.95,"laying_method":"base","depth_start":null,"depth_end":null,"cost":1.5555602E7}},{"type":"Feature","geometry":{"type":"LineString","coordinates":[[37.633511,55.6986682],[37.6341222,55.6995613]]},"properties":{"id":"new_v1_14","object_type":"heat_network","variant_id":"v1","start_node_id":"ch_v1_6","end_node_id":"ch_v1_7","flow_tph":158.85,"diameter":250,"length":106.57,"laying_method":"base","depth_start":null,"depth_end":null,"cost":1.442161E7}},{"type":"Feature","geometry":{"type":"LineString","coordinates":[[37.6341222,55.6995613],[37.6341122,55.6996225]]},"properties":{"id":"new_v1_15","object_type":"heat_network","variant_id":"v1","start_node_id":"ch_v1_7","end_node_id":"ch_v1_8","flow_tph":133.98,"diameter":200,"length":6.84,"laying_method":"base","depth_start":null,"depth_end":null,"cost":822699.0}},{"type":"Feature","geometry":{"type":"LineString","coordinates":[[37.6341122,55.6996225],[37.634492,55.6997027]]},"properties":{"id":"new_v1_16","object_type":"heat_network","variant_id":"v1","start_node_id":"ch_v1_8","end_node_id":"ch_v1_9","flow_tph":66.46,"diameter":200,"length":25.49,"laying_method":"base","depth_start":null,"depth_end":null,"cost":3065648.0}},{"type":"Feature","geometry":{"type":"LineString","coordinates":[[37.634492,55.6997027],[37.6351573,55.6994539],[37.6363819,55.7001552]]},"properties":{"id":"new_v1_17","object_type":"heat_network","variant_id":"v1","start_node_id":"ch_v1_9","end_node_id":"4","flow_tph":47.7,"diameter":150,"length":159.77,"laying_method":"base","depth_start":null,"depth_end":null,"cost":1.68572E7}},{"type":"Feature","geometry":{"type":"LineString","coordinates":[[37.634492,55.6997027],[37.6345829,55.6998545]]},"properties":{"id":"new_v1_18","object_type":"heat_network","variant_id":"v1","start_node_id":"ch_v1_9","end_node_id":"2","flow_tph":18.76,"diameter":100,"length":17.83,"laying_method":"base","depth_start":null,"depth_end":null,"cost":1600185.0}},{"type":"Feature","geometry":{"type":"LineString","coordinates":[[37.6341122,55.6996225],[37.6334595,55.6997194]]},"properties":{"id":"new_v1_19","object_type":"heat_network","variant_id":"v1","start_node_id":"ch_v1_8","end_node_id":"ch_v1_10","flow_tph":67.52,"diameter":200,"length":42.42,"laying_method":"base","depth_start":null,"depth_end":null,"cost":5101911.0}},{"type":"Feature","geometry":{"type":"LineString","coordinates":[[37.6334595,55.6997194],[37.6329777,55.7000986]]},"properties":{"id":"new_v1_20","object_type":"heat_network","variant_id":"v1","start_node_id":"ch_v1_10","end_node_id":"ch_v1_11","flow_tph":63.44,"diameter":150,"length":51.94,"laying_method":"base","depth_start":null,"depth_end":null,"cost":5480461.0}},{"type":"Feature","geometry":{"type":"LineString","coordinates":[[37.6329777,55.7000986],[37.632832,55.7000988],[37.6322764,55.7001816]]},"properties":{"id":"new_v1_21","object_type":"heat_network","variant_id":"v1","start_node_id":"ch_v1_11","end_node_id":"ch_v1_12","flow_tph":34.02,"diameter":125,"length":45.28,"laying_method":"base","depth_start":null,"depth_end":null,"cost":4404167.0}},{"type":"Feature","geometry":{"type":"LineString","coordinates":[[37.6322764,55.7001816],[37.6320122,55.7000483]]},"properties":{"id":"new_v1_22","object_type":"heat_network","variant_id":"v1","start_node_id":"ch_v1_12","end_node_id":"6","flow_tph":15.99,"diameter":100,"length":22.27,"laying_method":"base","depth_start":null,"depth_end":null,"cost":1998873.0}},{"type":"Feature","geometry":{"type":"LineString","coordinates":[[37.6322764,55.7001816],[37.6322026,55.7003144]]},"properties":{"id":"new_v1_23","object_type":"heat_network","variant_id":"v1","start_node_id":"ch_v1_12","end_node_id":"8","flow_tph":18.03,"diameter":100,"length":15.49,"laying_method":"base","depth_start":null,"depth_end":null,"cost":1390442.0}},{"type":"Feature","geometry":{"type":"LineString","coordinates":[[37.6329777,55.7000986],[37.6329581,55.7001244],[37.6328466,55.7002758]]},"properties":{"id":"new_v1_24","object_type":"heat_network","variant_id":"v1","start_node_id":"ch_v1_11","end_node_id":"3","flow_tph":29.42,"diameter":125,"length":21.38,"laying_method":"base","depth_start":null,"depth_end":null,"cost":2079333.0}},{"type":"Feature","geometry":{"type":"LineString","coordinates":[[37.6334595,55.6997194],[37.6332045,55.6995751]]},"properties":{"id":"new_v1_25","object_type":"heat_network","variant_id":"v1","start_node_id":"ch_v1_10","end_node_id":"11","flow_tph":4.08,"diameter":65,"length":22.69,"laying_method":"base","depth_start":null,"depth_end":null,"cost":1784439.0}},{"type":"Feature","geometry":{"type":"LineString","coordinates":[[37.6341222,55.6995613],[37.6344054,55.6994811]]},"properties":{"id":"new_v1_26","object_type":"heat_network","variant_id":"v1","start_node_id":"ch_v1_7","end_node_id":"1","flow_tph":24.87,"diameter":125,"length":19.92,"laying_method":"base","depth_start":null,"depth_end":null,"cost":1937268.0}},{"type":"Feature","geometry":{"type":"LineString","coordinates":[[37.633511,55.6986682],[37.6331393,55.6986531]]},"properties":{"id":"new_v1_27","object_type":"heat_network","variant_id":"v1","start_node_id":"ch_v1_6","end_node_id":"12","flow_tph":40.0,"diameter":125,"length":23.42,"laying_method":"base","depth_start":null,"depth_end":null,"cost":2278409.0}},{"type":"Feature","geometry":{"type":"LineString","coordinates":[[37.6384737,55.6978266],[37.6395381,55.6968518]]},"properties":{"id":"new_v1_28","object_type":"heat_network","variant_id":"v1","start_node_id":"ch_v1_1","end_node_id":"17","flow_tph":20.63,"diameter":100,"length":127.47,"laying_method":"base","depth_start":null,"depth_end":null,"cost":1.143976E7}},{"type":"Feature","geometry":{"type":"LineString","coordinates":[[37.6384737,55.6978266],[37.6382803,55.6979568]]},"properties":{"id":"new_v1_29","object_type":"heat_network","variant_id":"v1","start_node_id":"ch_v1_1","end_node_id":"7","flow_tph":27.82,"diameter":125,"length":18.92,"laying_method":"base","depth_start":null,"depth_end":null,"cost":1840120.0}},{"type":"Feature","geometry":{"type":"Point","coordinates":[37.6384737,55.6978266]},"properties":{"id":"ch_v1_1","object_type":"heat_chamber","variant_id":"v1","diameter":300,"degree":4,"cost":5000000.0}},{"type":"Feature","geometry":{"type":"Point","coordinates":[37.6373557,55.6977338]},"properties":{"id":"ch_v1_2","object_type":"heat_chamber","variant_id":"v1","diameter":300,"degree":3,"cost":5000000.0}},{"type":"Feature","geometry":{"type":"Point","coordinates":[37.6351179,55.6985245]},"properties":{"id":"ch_v1_3","object_type":"heat_chamber","variant_id":"v1","diameter":300,"degree":4,"cost":5000000.0}},{"type":"Feature","geometry":{"type":"Point","coordinates":[37.6340431,55.6976592]},"properties":{"id":"ch_v1_4","object_type":"heat_chamber","variant_id":"v1","diameter":200,"degree":3,"cost":3000000.0}},{"type":"Feature","geometry":{"type":"Point","coordinates":[37.6338848,55.6975542]},"properties":{"id":"ch_v1_5","object_type":"heat_chamber","variant_id":"v1","diameter":200,"degree":4,"cost":3000000.0}},{"type":"Feature","geometry":{"type":"Point","coordinates":[37.633511,55.6986682]},"properties":{"id":"ch_v1_6","object_type":"heat_chamber","variant_id":"v1","diameter":250,"degree":3,"cost":5000000.0}},{"type":"Feature","geometry":{"type":"Point","coordinates":[37.6341222,55.6995613]},"properties":{"id":"ch_v1_7","object_type":"heat_chamber","variant_id":"v1","diameter":250,"degree":3,"cost":5000000.0}},{"type":"Feature","geometry":{"type":"Point","coordinates":[37.6341122,55.6996225]},"properties":{"id":"ch_v1_8","object_type":"heat_chamber","variant_id":"v1","diameter":200,"degree":3,"cost":3000000.0}},{"type":"Feature","geometry":{"type":"Point","coordinates":[37.634492,55.6997027]},"properties":{"id":"ch_v1_9","object_type":"heat_chamber","variant_id":"v1","diameter":200,"degree":3,"cost":3000000.0}},{"type":"Feature","geometry":{"type":"Point","coordinates":[37.6334595,55.6997194]},"properties":{"id":"ch_v1_10","object_type":"heat_chamber","variant_id":"v1","diameter":200,"degree":3,"cost":3000000.0}},{"type":"Feature","geometry":{"type":"Point","coordinates":[37.6329777,55.7000986]},"properties":{"id":"ch_v1_11","object_type":"heat_chamber","variant_id":"v1","diameter":150,"degree":3,"cost":3000000.0}},{"type":"Feature","geometry":{"type":"Point","coordinates":[37.6322764,55.7001816]},"properties":{"id":"ch_v1_12","object_type":"heat_chamber","variant_id":"v1","diameter":125,"degree":3,"cost":3000000.0}},{"type":"Feature","geometry":{"type":"Point","coordinates":[37.6386247,55.6978857]},"properties":{"id":"ch_v1_13","object_type":"heat_chamber","variant_id":"v1","diameter":400,"degree":4,"cost":5000000.0}},{"type":"Feature","geometry":null,"properties":{"id":"summary_v1","object_type":"variant_summary","variant_id":"v1","rank":1,"construction_cost":2.48579372E8,"chamber_construction_cost":5.1E7,"existing_chamber_tie_in_count":0,"existing_chamber_tie_in_cost":0.0,"unconnected_penalty":0.0,"calculated_cost":2.48579372E8,"new_network_length":1728.37,"score":12.145,"unconnected_oks_ids":[]}},{"type":"Feature","geometry":{"type":"LineString","coordinates":[[37.6383782,55.6975066],[37.6383496,55.6975144]]},"properties":{"id":"new_v3_1","object_type":"heat_network","variant_id":"v3","start_node_id":"ch_v3_13","end_node_id":"tn_v3_1","flow_tph":364.0,"diameter":300,"length":2.0,"laying_method":"special","depth_start":null,"depth_end":null,"cost":315046.0}},{"type":"Feature","geometry":{"type":"LineString","coordinates":[[37.6383496,55.6975144],[37.6367082,55.6979607]]},"properties":{"id":"new_v3_2","object_type":"heat_network","variant_id":"v3","start_node_id":"tn_v3_1","end_node_id":"ch_v3_1","flow_tph":364.0,"diameter":300,"length":114.51,"laying_method":"base","depth_start":null,"depth_end":null,"cost":1.7178967E7}},{"type":"Feature","geometry":{"type":"LineString","coordinates":[[37.6367082,55.6979607],[37.6345494,55.6984244]]},"properties":{"id":"new_v3_3","object_type":"heat_network","variant_id":"v3","start_node_id":"ch_v3_1","end_node_id":"ch_v3_2","flow_tph":330.86,"diameter":300,"length":145.19,"laying_method":"base","depth_start":null,"depth_end":null,"cost":2.1781093E7}},{"type":"Feature","geometry":{"type":"LineString","coordinates":[[37.6345494,55.6984244],[37.6354171,55.6986147]]},"properties":{"id":"new_v3_4","object_type":"heat_network","variant_id":"v3","start_node_id":"ch_v3_2","end_node_id":"5","flow_tph":26.09,"diameter":125,"length":58.51,"laying_method":"base","depth_start":null,"depth_end":null,"cost":5691363.0}},{"type":"Feature","geometry":{"type":"LineString","coordinates":[[37.6345494,55.6984244],[37.6345052,55.6984339]]},"properties":{"id":"new_v3_5","object_type":"heat_network","variant_id":"v3","start_node_id":"ch_v3_2","end_node_id":"ch_v3_3","flow_tph":304.77,"diameter":300,"length":2.97,"laying_method":"base","depth_start":null,"depth_end":null,"cost":445504.0}},{"type":"Feature","geometry":{"type":"LineString","coordinates":[[37.6345052,55.6984339],[37.634533,55.6984209],[37.6345298,55.6983811],[37.6338971,55.6974417]]},"properties":{"id":"new_v3_6","object_type":"heat_network","variant_id":"v3","start_node_id":"ch_v3_3","end_node_id":"ch_v3_4","flow_tph":105.92,"diameter":200,"length":118.57,"laying_method":"base","depth_start":null,"depth_end":null,"cost":1.4260411E7}},{"type":"Feature","geometry":{"type":"LineString","coordinates":[[37.6338971,55.6974417],[37.6339261,55.6976297],[37.6338765,55.6976429]]},"properties":{"id":"new_v3_7","object_type":"heat_network","variant_id":"v3","start_node_id":"ch_v3_4","end_node_id":"ch_v3_5","flow_tph":51.66,"diameter":150,"length":24.45,"laying_method":"base","depth_start":null,"depth_end":null,"cost":2579768.0}},{"type":"Feature","geometry":{"type":"LineString","coordinates":[[37.6338765,55.6976429],[37.6339011,55.6977226]]},"properties":{"id":"new_v3_8","object_type":"heat_network","variant_id":"v3","start_node_id":"ch_v3_5","end_node_id":"13","flow_tph":19.77,"diameter":100,"length":9.0,"laying_method":"base","depth_start":null,"depth_end":null,"cost":808062.0}},{"type":"Feature","geometry":{"type":"LineString","coordinates":[[37.6338765,55.6976429],[37.6326378,55.6977307],[37.6320344,55.6970457]]},"properties":{"id":"new_v3_9","object_type":"heat_network","variant_id":"v3","start_node_id":"ch_v3_5","end_node_id":"15","flow_tph":31.89,"diameter":125,"length":163.63,"laying_method":"base","depth_start":null,"depth_end":null,"cost":1.5916645E7}},{"type":"Feature","geometry":{"type":"LineString","coordinates":[[37.6338971,55.6974417],[37.6344463,55.6972524]]},"properties":{"id":"new_v3_10","object_type":"heat_network","variant_id":"v3","start_node_id":"ch_v3_4","end_node_id":"9","flow_tph":34.53,"diameter":125,"length":40.44,"laying_method":"base","depth_start":null,"depth_end":null,"cost":3934235.0}},{"type":"Feature","geometry":{"type":"LineString","coordinates":[[37.6338971,55.6974417],[37.6337524,55.6974723]]},"properties":{"id":"new_v3_11","object_type":"heat_network","variant_id":"v3","start_node_id":"ch_v3_4","end_node_id":"14","flow_tph":19.73,"diameter":100,"length":9.71,"laying_method":"base","depth_start":null,"depth_end":null,"cost":871470.0}},{"type":"Feature","geometry":{"type":"LineString","coordinates":[[37.6345052,55.6984339],[37.6344694,55.6984566],[37.6335968,55.6986359],[37.633511,55.6986682]]},"properties":{"id":"new_v3_12","object_type":"heat_network","variant_id":"v3","start_node_id":"ch_v3_3","end_node_id":"ch_v3_6","flow_tph":198.85,"diameter":250,"length":68.23,"laying_method":"base","depth_start":null,"depth_end":null,"cost":9233313.0}},{"type":"Feature","geometry":{"type":"LineString","coordinates":[[37.633511,55.6986682],[37.6341222,55.6995613]]},"properties":{"id":"new_v3_13","object_type":"heat_network","variant_id":"v3","start_node_id":"ch_v3_6","end_node_id":"ch_v3_7","flow_tph":158.85,"diameter":250,"length":106.57,"laying_method":"base","depth_start":null,"depth_end":null,"cost":1.4421641E7}},{"type":"Feature","geometry":{"type":"LineString","coordinates":[[37.6341222,55.6995613],[37.6341122,55.6996226]]},"properties":{"id":"new_v3_14","object_type":"heat_network","variant_id":"v3","start_node_id":"ch_v3_7","end_node_id":"ch_v3_8","flow_tph":133.98,"diameter":200,"length":6.86,"laying_method":"base","depth_start":null,"depth_end":null,"cost":824783.0}},{"type":"Feature","geometry":{"type":"LineString","coordinates":[[37.6341122,55.6996226],[37.634492,55.6997028]]},"properties":{"id":"new_v3_15","object_type":"heat_network","variant_id":"v3","start_node_id":"ch_v3_8","end_node_id":"ch_v3_9","flow_tph":66.46,"diameter":200,"length":25.48,"laying_method":"base","depth_start":null,"depth_end":null,"cost":3065195.0}},{"type":"Feature","geometry":{"type":"LineString","coordinates":[[37.634492,55.6997028],[37.6351573,55.6994539],[37.6363819,55.7001552]]},"properties":{"id":"new_v3_16","object_type":"heat_network","variant_id":"v3","start_node_id":"ch_v3_9","end_node_id":"4","flow_tph":47.7,"diameter":150,"length":159.78,"laying_method":"base","depth_start":null,"depth_end":null,"cost":1.6857583E7}},{"type":"Feature","geometry":{"type":"LineString","coordinates":[[37.634492,55.6997028],[37.6345829,55.6998545]]},"properties":{"id":"new_v3_17","object_type":"heat_network","variant_id":"v3","start_node_id":"ch_v3_9","end_node_id":"2","flow_tph":18.76,"diameter":100,"length":17.82,"laying_method":"base","depth_start":null,"depth_end":null,"cost":1599680.0}},{"type":"Feature","geometry":{"type":"LineString","coordinates":[[37.6341122,55.6996226],[37.6334612,55.6997199]]},"properties":{"id":"new_v3_18","object_type":"heat_network","variant_id":"v3","start_node_id":"ch_v3_8","end_node_id":"ch_v3_10","flow_tph":67.52,"diameter":200,"length":42.33,"laying_method":"base","depth_start":null,"depth_end":null,"cost":5090684.0}},{"type":"Feature","geometry":{"type":"LineString","coordinates":[[37.6334612,55.6997199],[37.6329778,55.7000986]]},"properties":{"id":"new_v3_19","object_type":"heat_network","variant_id":"v3","start_node_id":"ch_v3_10","end_node_id":"ch_v3_11","flow_tph":63.44,"diameter":150,"length":51.96,"laying_method":"base","depth_start":null,"depth_end":null,"cost":5481809.0}},{"type":"Feature","geometry":{"type":"LineString","coordinates":[[37.6329778,55.7000986],[37.6328466,55.7002758]]},"properties":{"id":"new_v3_20","object_type":"heat_network","variant_id":"v3","start_node_id":"ch_v3_11","end_node_id":"3","flow_tph":29.42,"diameter":125,"length":21.38,"laying_method":"base","depth_start":null,"depth_end":null,"cost":2079500.0}},{"type":"Feature","geometry":{"type":"LineString","coordinates":[[37.6329778,55.7000986],[37.632832,55.7000988],[37.6322764,55.7001816]]},"properties":{"id":"new_v3_21","object_type":"heat_network","variant_id":"v3","start_node_id":"ch_v3_11","end_node_id":"ch_v3_12","flow_tph":34.02,"diameter":125,"length":45.28,"laying_method":"base","depth_start":null,"depth_end":null,"cost":4404821.0}},{"type":"Feature","geometry":{"type":"LineString","coordinates":[[37.6322764,55.7001816],[37.6320122,55.7000483]]},"properties":{"id":"new_v3_22","object_type":"heat_network","variant_id":"v3","start_node_id":"ch_v3_12","end_node_id":"6","flow_tph":15.99,"diameter":100,"length":22.27,"laying_method":"base","depth_start":null,"depth_end":null,"cost":1998873.0}},{"type":"Feature","geometry":{"type":"LineString","coordinates":[[37.6322764,55.7001816],[37.6322026,55.7003144]]},"properties":{"id":"new_v3_23","object_type":"heat_network","variant_id":"v3","start_node_id":"ch_v3_12","end_node_id":"8","flow_tph":18.03,"diameter":100,"length":15.49,"laying_method":"base","depth_start":null,"depth_end":null,"cost":1390442.0}},{"type":"Feature","geometry":{"type":"LineString","coordinates":[[37.6334612,55.6997199],[37.6332045,55.6995751]]},"properties":{"id":"new_v3_24","object_type":"heat_network","variant_id":"v3","start_node_id":"ch_v3_10","end_node_id":"11","flow_tph":4.08,"diameter":65,"length":22.81,"laying_method":"base","depth_start":null,"depth_end":null,"cost":1793507.0}},{"type":"Feature","geometry":{"type":"LineString","coordinates":[[37.6341222,55.6995613],[37.6344054,55.6994811]]},"properties":{"id":"new_v3_25","object_type":"heat_network","variant_id":"v3","start_node_id":"ch_v3_7","end_node_id":"1","flow_tph":24.87,"diameter":125,"length":19.92,"laying_method":"base","depth_start":null,"depth_end":null,"cost":1937235.0}},{"type":"Feature","geometry":{"type":"LineString","coordinates":[[37.633511,55.6986682],[37.6331393,55.6986531]]},"properties":{"id":"new_v3_26","object_type":"heat_network","variant_id":"v3","start_node_id":"ch_v3_6","end_node_id":"12","flow_tph":40.0,"diameter":125,"length":23.42,"laying_method":"base","depth_start":null,"depth_end":null,"cost":2278409.0}},{"type":"Feature","geometry":{"type":"LineString","coordinates":[[37.6367082,55.6979607],[37.6360932,55.6972966]]},"properties":{"id":"new_v3_27","object_type":"heat_network","variant_id":"v3","start_node_id":"ch_v3_1","end_node_id":"10","flow_tph":33.14,"diameter":125,"length":83.42,"laying_method":"base","depth_start":null,"depth_end":null,"cost":8114438.0}},{"type":"Feature","geometry":{"type":"LineString","coordinates":[[37.6386338,55.6978998],[37.6392011,55.6978376]]},"properties":{"id":"new_v3_28","object_type":"heat_network","variant_id":"v3","start_node_id":"ch_v3_15","end_node_id":"ch_v3_14","flow_tph":96.9,"diameter":200,"length":36.33,"laying_method":"base","depth_start":null,"depth_end":null,"cost":4369564.0}},{"type":"Feature","geometry":{"type":"LineString","coordinates":[[37.6392011,55.6978376],[37.6407645,55.6984074]]},"properties":{"id":"new_v3_29","object_type":"heat_network","variant_id":"v3","start_node_id":"ch_v3_14","end_node_id":"16","flow_tph":76.27,"diameter":200,"length":116.96,"laying_method":"base","depth_start":null,"depth_end":null,"cost":1.4066854E7}},{"type":"Feature","geometry":{"type":"LineString","coordinates":[[37.6392011,55.6978376],[37.6395381,55.6968518]]},"properties":{"id":"new_v3_30","object_type":"heat_network","variant_id":"v3","start_node_id":"ch_v3_14","end_node_id":"17","flow_tph":20.63,"diameter":100,"length":111.75,"laying_method":"base","depth_start":null,"depth_end":null,"cost":1.0028894E7}},{"type":"Feature","geometry":{"type":"LineString","coordinates":[[37.6386338,55.6978998],[37.6382803,55.6979568]]},"properties":{"id":"new_v3_31","object_type":"heat_network","variant_id":"v3","start_node_id":"ch_v3_15","end_node_id":"7","flow_tph":27.82,"diameter":125,"length":23.11,"laying_method":"base","depth_start":null,"depth_end":null,"cost":2247695.0}},{"type":"Feature","geometry":{"type":"Point","coordinates":[37.6367082,55.6979607]},"properties":{"id":"ch_v3_1","object_type":"heat_chamber","variant_id":"v3","diameter":300,"degree":3,"cost":5000000.0}},{"type":"Feature","geometry":{"type":"Point","coordinates":[37.6345494,55.6984244]},"properties":{"id":"ch_v3_2","object_type":"heat_chamber","variant_id":"v3","diameter":300,"degree":3,"cost":5000000.0}},{"type":"Feature","geometry":{"type":"Point","coordinates":[37.6345052,55.6984339]},"properties":{"id":"ch_v3_3","object_type":"heat_chamber","variant_id":"v3","diameter":300,"degree":3,"cost":5000000.0}},{"type":"Feature","geometry":{"type":"Point","coordinates":[37.6338971,55.6974417]},"properties":{"id":"ch_v3_4","object_type":"heat_chamber","variant_id":"v3","diameter":200,"degree":4,"cost":3000000.0}},{"type":"Feature","geometry":{"type":"Point","coordinates":[37.6338765,55.6976429]},"properties":{"id":"ch_v3_5","object_type":"heat_chamber","variant_id":"v3","diameter":150,"degree":3,"cost":3000000.0}},{"type":"Feature","geometry":{"type":"Point","coordinates":[37.633511,55.6986682]},"properties":{"id":"ch_v3_6","object_type":"heat_chamber","variant_id":"v3","diameter":250,"degree":3,"cost":5000000.0}},{"type":"Feature","geometry":{"type":"Point","coordinates":[37.6341222,55.6995613]},"properties":{"id":"ch_v3_7","object_type":"heat_chamber","variant_id":"v3","diameter":250,"degree":3,"cost":5000000.0}},{"type":"Feature","geometry":{"type":"Point","coordinates":[37.6341122,55.6996226]},"properties":{"id":"ch_v3_8","object_type":"heat_chamber","variant_id":"v3","diameter":200,"degree":3,"cost":3000000.0}},{"type":"Feature","geometry":{"type":"Point","coordinates":[37.634492,55.6997028]},"properties":{"id":"ch_v3_9","object_type":"heat_chamber","variant_id":"v3","diameter":200,"degree":3,"cost":3000000.0}},{"type":"Feature","geometry":{"type":"Point","coordinates":[37.6334612,55.6997199]},"properties":{"id":"ch_v3_10","object_type":"heat_chamber","variant_id":"v3","diameter":200,"degree":3,"cost":3000000.0}},{"type":"Feature","geometry":{"type":"Point","coordinates":[37.6329778,55.7000986]},"properties":{"id":"ch_v3_11","object_type":"heat_chamber","variant_id":"v3","diameter":150,"degree":3,"cost":3000000.0}},{"type":"Feature","geometry":{"type":"Point","coordinates":[37.6322764,55.7001816]},"properties":{"id":"ch_v3_12","object_type":"heat_chamber","variant_id":"v3","diameter":125,"degree":3,"cost":3000000.0}},{"type":"Feature","geometry":{"type":"Point","coordinates":[37.6383782,55.6975066]},"properties":{"id":"ch_v3_13","object_type":"heat_chamber","variant_id":"v3","diameter":400,"degree":3,"cost":5000000.0}},{"type":"Feature","geometry":{"type":"Point","coordinates":[37.6392011,55.6978376]},"properties":{"id":"ch_v3_14","object_type":"heat_chamber","variant_id":"v3","diameter":200,"degree":3,"cost":3000000.0}},{"type":"Feature","geometry":{"type":"Point","coordinates":[37.6386338,55.6978998]},"properties":{"id":"ch_v3_15","object_type":"heat_chamber","variant_id":"v3","diameter":400,"degree":4,"cost":5000000.0}},{"type":"Feature","geometry":{"type":"Point","coordinates":[37.6383496,55.6975144]},"properties":{"id":"tn_v3_1","object_type":"technical_node","variant_id":"v3"}},{"type":"Feature","geometry":null,"properties":{"id":"summary_v3","object_type":"variant_summary","variant_id":"v3","rank":2,"construction_cost":2.54067484E8,"chamber_construction_cost":5.9E7,"existing_chamber_tie_in_count":0,"existing_chamber_tie_in_cost":0.0,"unconnected_penalty":0.0,"calculated_cost":2.54067484E8,"new_network_length":1710.15,"score":12.244,"unconnected_oks_ids":[]}},{"type":"Feature","geometry":{"type":"LineString","coordinates":[[37.6398999,55.6997659],[37.6398691,55.6997703]]},"properties":{"id":"new_v2_1","object_type":"heat_network","variant_id":"v2","start_node_id":"ch_v2_8","end_node_id":"tn_v2_1","flow_tph":224.94,"diameter":250,"length":2.0,"laying_method":"special","depth_start":null,"depth_end":null,"cost":284178.0}},{"type":"Feature","geometry":{"type":"LineString","coordinates":[[37.6398691,55.6997703],[37.6363159,55.7002681]]},"properties":{"id":"new_v2_2","object_type":"heat_network","variant_id":"v2","start_node_id":"tn_v2_1","end_node_id":"ch_v2_1","flow_tph":224.94,"diameter":250,"length":230.11,"laying_method":"base","depth_start":null,"depth_end":null,"cost":3.1138894E7}},{"type":"Feature","geometry":{"type":"LineString","coordinates":[[37.6363159,55.7002681],[37.6363819,55.7001552]]},"properties":{"id":"new_v2_3","object_type":"heat_network","variant_id":"v2","start_node_id":"ch_v2_1","end_node_id":"4","flow_tph":47.7,"diameter":150,"length":13.24,"laying_method":"base","depth_start":null,"depth_end":null,"cost":1396429.0}},{"type":"Feature","geometry":{"type":"LineString","coordinates":[[37.6363159,55.7002681],[37.6362058,55.7003083],[37.6353521,55.6996038],[37.6352936,55.6995588]]},"properties":{"id":"new_v2_4","object_type":"heat_network","variant_id":"v2","start_node_id":"ch_v2_1","end_node_id":"ch_v2_2","flow_tph":177.24,"diameter":250,"length":109.46,"laying_method":"base","depth_start":null,"depth_end":null,"cost":1.4812361E7}},{"type":"Feature","geometry":{"type":"LineString","coordinates":[[37.6352936,55.6995588],[37.6345215,55.6997217]]},"properties":{"id":"new_v2_5","object_type":"heat_network","variant_id":"v2","start_node_id":"ch_v2_2","end_node_id":"ch_v2_3","flow_tph":151.15,"diameter":200,"length":51.81,"laying_method":"base","depth_start":null,"depth_end":null,"cost":6231239.0}},{"type":"Feature","geometry":{"type":"LineString","coordinates":[[37.6345215,55.6997217],[37.6344054,55.6994811]]},"properties":{"id":"new_v2_6","object_type":"heat_network","variant_id":"v2","start_node_id":"ch_v2_3","end_node_id":"1","flow_tph":24.87,"diameter":125,"length":27.76,"laying_method":"base","depth_start":null,"depth_end":null,"cost":2700371.0}},{"type":"Feature","geometry":{"type":"LineString","coordinates":[[37.6345215,55.6997217],[37.6345829,55.6998545]]},"properties":{"id":"new_v2_7","object_type":"heat_network","variant_id":"v2","start_node_id":"ch_v2_3","end_node_id":"2","flow_tph":18.76,"diameter":100,"length":15.27,"laying_method":"base","depth_start":null,"depth_end":null,"cost":1370659.0}},{"type":"Feature","geometry":{"type":"LineString","coordinates":[[37.6345215,55.6997217],[37.6343519,55.6997646],[37.6336349,55.6997029]]},"properties":{"id":"new_v2_8","object_type":"heat_network","variant_id":"v2","start_node_id":"ch_v2_3","end_node_id":"ch_v2_4","flow_tph":107.52,"diameter":200,"length":57.26,"laying_method":"base","depth_start":null,"depth_end":null,"cost":6887512.0}},{"type":"Feature","geometry":{"type":"LineString","coordinates":[[37.6336349,55.6997029],[37.6329574,55.7001074],[37.6329421,55.7001233]]},"properties":{"id":"new_v2_9","object_type":"heat_network","variant_id":"v2","start_node_id":"ch_v2_4","end_node_id":"ch_v2_5","flow_tph":63.44,"diameter":150,"length":63.98,"laying_method":"base","depth_start":null,"depth_end":null,"cost":6750641.0}},{"type":"Feature","geometry":{"type":"LineString","coordinates":[[37.6329421,55.7001233],[37.6328805,55.7000996],[37.6328113,55.7000984],[37.6322764,55.7001816]]},"properties":{"id":"new_v2_10","object_type":"heat_network","variant_id":"v2","start_node_id":"ch_v2_5","end_node_id":"ch_v2_6","flow_tph":34.02,"diameter":125,"length":43.91,"laying_method":"base","depth_start":null,"depth_end":null,"cost":4271266.0}},{"type":"Feature","geometry":{"type":"LineString","coordinates":[[37.6322764,55.7001816],[37.6320122,55.7000483]]},"properties":{"id":"new_v2_11","object_type":"heat_network","variant_id":"v2","start_node_id":"ch_v2_6","end_node_id":"6","flow_tph":15.99,"diameter":100,"length":22.27,"laying_method":"base","depth_start":null,"depth_end":null,"cost":1998873.0}},{"type":"Feature","geometry":{"type":"LineString","coordinates":[[37.6322764,55.7001816],[37.6322026,55.7003144]]},"properties":{"id":"new_v2_12","object_type":"heat_network","variant_id":"v2","start_node_id":"ch_v2_6","end_node_id":"8","flow_tph":18.03,"diameter":100,"length":15.49,"laying_method":"base","depth_start":null,"depth_end":null,"cost":1390442.0}},{"type":"Feature","geometry":{"type":"LineString","coordinates":[[37.6329421,55.7001233],[37.6328466,55.7002758]]},"properties":{"id":"new_v2_13","object_type":"heat_network","variant_id":"v2","start_node_id":"ch_v2_5","end_node_id":"3","flow_tph":29.42,"diameter":125,"length":18.0,"laying_method":"base","depth_start":null,"depth_end":null,"cost":1751158.0}},{"type":"Feature","geometry":{"type":"LineString","coordinates":[[37.6336349,55.6997029],[37.6334842,55.6995291]]},"properties":{"id":"new_v2_14","object_type":"heat_network","variant_id":"v2","start_node_id":"ch_v2_4","end_node_id":"ch_v2_7","flow_tph":44.08,"diameter":150,"length":21.54,"laying_method":"base","depth_start":null,"depth_end":null,"cost":2272650.0}},{"type":"Feature","geometry":{"type":"LineString","coordinates":[[37.6334842,55.6995291],[37.6332045,55.6995751]]},"properties":{"id":"new_v2_15","object_type":"heat_network","variant_id":"v2","start_node_id":"ch_v2_7","end_node_id":"11","flow_tph":4.08,"diameter":65,"length":18.31,"laying_method":"base","depth_start":null,"depth_end":null,"cost":1439823.0}},{"type":"Feature","geometry":{"type":"LineString","coordinates":[[37.6334842,55.6995291],[37.6331393,55.6986531]]},"properties":{"id":"new_v2_16","object_type":"heat_network","variant_id":"v2","start_node_id":"ch_v2_7","end_node_id":"12","flow_tph":40.0,"diameter":125,"length":99.89,"laying_method":"base","depth_start":null,"depth_end":null,"cost":9716327.0}},{"type":"Feature","geometry":{"type":"LineString","coordinates":[[37.6352936,55.6995588],[37.6355578,55.6993203],[37.6354171,55.6986147]]},"properties":{"id":"new_v2_17","object_type":"heat_network","variant_id":"v2","start_node_id":"ch_v2_2","end_node_id":"5","flow_tph":26.09,"diameter":125,"length":110.34,"laying_method":"base","depth_start":null,"depth_end":null,"cost":1.0733331E7}},{"type":"Feature","geometry":{"type":"LineString","coordinates":[[37.6386247,55.6978857],[37.6384737,55.6978266],[37.6373593,55.6977222],[37.636067,55.697059]]},"properties":{"id":"new_v2_18","object_type":"heat_network","variant_id":"v2","start_node_id":"ch_v2_12","end_node_id":"ch_v2_9","flow_tph":139.06,"diameter":200,"length":192.31,"laying_method":"base","depth_start":null,"depth_end":null,"cost":2.3130343E7}},{"type":"Feature","geometry":{"type":"LineString","coordinates":[[37.636067,55.697059],[37.6343678,55.6973945]]},"properties":{"id":"new_v2_19","object_type":"heat_network","variant_id":"v2","start_node_id":"ch_v2_9","end_node_id":"ch_v2_10","flow_tph":105.92,"diameter":200,"length":113.15,"laying_method":"base","depth_start":null,"depth_end":null,"cost":1.3608868E7}},{"type":"Feature","geometry":{"type":"LineString","coordinates":[[37.6343678,55.6973945],[37.6335557,55.6976814]]},"properties":{"id":"new_v2_20","object_type":"heat_network","variant_id":"v2","start_node_id":"ch_v2_10","end_node_id":"ch_v2_11","flow_tph":71.39,"diameter":200,"length":60.21,"laying_method":"base","depth_start":null,"depth_end":null,"cost":7242038.0}},{"type":"Feature","geometry":{"type":"LineString","coordinates":[[37.6335557,55.6976814],[37.6339011,55.6977226]]},"properties":{"id":"new_v2_21","object_type":"heat_network","variant_id":"v2","start_node_id":"ch_v2_11","end_node_id":"13","flow_tph":19.77,"diameter":100,"length":22.19,"laying_method":"base","depth_start":null,"depth_end":null,"cost":1991155.0}},{"type":"Feature","geometry":{"type":"LineString","coordinates":[[37.6335557,55.6976814],[37.6337524,55.6974723]]},"properties":{"id":"new_v2_22","object_type":"heat_network","variant_id":"v2","start_node_id":"ch_v2_11","end_node_id":"14","flow_tph":19.73,"diameter":100,"length":26.35,"laying_method":"base","depth_start":null,"depth_end":null,"cost":2364721.0}},{"type":"Feature","geometry":{"type":"LineString","coordinates":[[37.6335557,55.6976814],[37.63289,55.6976974],[37.6324571,55.6974625],[37.6320344,55.6970457]]},"properties":{"id":"new_v2_23","object_type":"heat_network","variant_id":"v2","start_node_id":"ch_v2_11","end_node_id":"15","flow_tph":31.89,"diameter":125,"length":133.09,"laying_method":"base","depth_start":null,"depth_end":null,"cost":1.294587E7}},{"type":"Feature","geometry":{"type":"LineString","coordinates":[[37.6343678,55.6973945],[37.6344463,55.6972524]]},"properties":{"id":"new_v2_24","object_type":"heat_network","variant_id":"v2","start_node_id":"ch_v2_10","end_node_id":"9","flow_tph":34.53,"diameter":125,"length":16.57,"laying_method":"base","depth_start":null,"depth_end":null,"cost":1611372.0}},{"type":"Feature","geometry":{"type":"LineString","coordinates":[[37.636067,55.697059],[37.6360932,55.6972966]]},"properties":{"id":"new_v2_25","object_type":"heat_network","variant_id":"v2","start_node_id":"ch_v2_9","end_node_id":"10","flow_tph":33.14,"diameter":125,"length":26.49,"laying_method":"base","depth_start":null,"depth_end":null,"cost":2576641.0}},{"type":"Feature","geometry":{"type":"LineString","coordinates":[[37.6386338,55.6978998],[37.6392011,55.6978376]]},"properties":{"id":"new_v2_26","object_type":"heat_network","variant_id":"v2","start_node_id":"ch_v2_14","end_node_id":"ch_v2_13","flow_tph":96.9,"diameter":200,"length":36.33,"laying_method":"base","depth_start":null,"depth_end":null,"cost":4369564.0}},{"type":"Feature","geometry":{"type":"LineString","coordinates":[[37.6392011,55.6978376],[37.6407645,55.6984074]]},"properties":{"id":"new_v2_27","object_type":"heat_network","variant_id":"v2","start_node_id":"ch_v2_13","end_node_id":"16","flow_tph":76.27,"diameter":200,"length":116.96,"laying_method":"base","depth_start":null,"depth_end":null,"cost":1.4066854E7}},{"type":"Feature","geometry":{"type":"LineString","coordinates":[[37.6392011,55.6978376],[37.6395381,55.6968518]]},"properties":{"id":"new_v2_28","object_type":"heat_network","variant_id":"v2","start_node_id":"ch_v2_13","end_node_id":"17","flow_tph":20.63,"diameter":100,"length":111.75,"laying_method":"base","depth_start":null,"depth_end":null,"cost":1.0028894E7}},{"type":"Feature","geometry":{"type":"LineString","coordinates":[[37.6386338,55.6978998],[37.6382803,55.6979568]]},"properties":{"id":"new_v2_29","object_type":"heat_network","variant_id":"v2","start_node_id":"ch_v2_14","end_node_id":"7","flow_tph":27.82,"diameter":125,"length":23.11,"laying_method":"base","depth_start":null,"depth_end":null,"cost":2247695.0}},{"type":"Feature","geometry":{"type":"Point","coordinates":[37.6363159,55.7002681]},"properties":{"id":"ch_v2_1","object_type":"heat_chamber","variant_id":"v2","diameter":250,"degree":3,"cost":5000000.0}},{"type":"Feature","geometry":{"type":"Point","coordinates":[37.6352936,55.6995588]},"properties":{"id":"ch_v2_2","object_type":"heat_chamber","variant_id":"v2","diameter":250,"degree":3,"cost":5000000.0}},{"type":"Feature","geometry":{"type":"Point","coordinates":[37.6345215,55.6997217]},"properties":{"id":"ch_v2_3","object_type":"heat_chamber","variant_id":"v2","diameter":200,"degree":4,"cost":3000000.0}},{"type":"Feature","geometry":{"type":"Point","coordinates":[37.6336349,55.6997029]},"properties":{"id":"ch_v2_4","object_type":"heat_chamber","variant_id":"v2","diameter":200,"degree":3,"cost":3000000.0}},{"type":"Feature","geometry":{"type":"Point","coordinates":[37.6329421,55.7001233]},"properties":{"id":"ch_v2_5","object_type":"heat_chamber","variant_id":"v2","diameter":150,"degree":3,"cost":3000000.0}},{"type":"Feature","geometry":{"type":"Point","coordinates":[37.6322764,55.7001816]},"properties":{"id":"ch_v2_6","object_type":"heat_chamber","variant_id":"v2","diameter":125,"degree":3,"cost":3000000.0}},{"type":"Feature","geometry":{"type":"Point","coordinates":[37.6334842,55.6995291]},"properties":{"id":"ch_v2_7","object_type":"heat_chamber","variant_id":"v2","diameter":150,"degree":3,"cost":3000000.0}},{"type":"Feature","geometry":{"type":"Point","coordinates":[37.6398999,55.6997659]},"properties":{"id":"ch_v2_8","object_type":"heat_chamber","variant_id":"v2","diameter":400,"degree":3,"cost":5000000.0}},{"type":"Feature","geometry":{"type":"Point","coordinates":[37.636067,55.697059]},"properties":{"id":"ch_v2_9","object_type":"heat_chamber","variant_id":"v2","diameter":200,"degree":3,"cost":3000000.0}},{"type":"Feature","geometry":{"type":"Point","coordinates":[37.6343678,55.6973945]},"properties":{"id":"ch_v2_10","object_type":"heat_chamber","variant_id":"v2","diameter":200,"degree":3,"cost":3000000.0}},{"type":"Feature","geometry":{"type":"Point","coordinates":[37.6335557,55.6976814]},"properties":{"id":"ch_v2_11","object_type":"heat_chamber","variant_id":"v2","diameter":200,"degree":4,"cost":3000000.0}},{"type":"Feature","geometry":{"type":"Point","coordinates":[37.6386247,55.6978857]},"properties":{"id":"ch_v2_12","object_type":"heat_chamber","variant_id":"v2","diameter":400,"degree":3,"cost":5000000.0}},{"type":"Feature","geometry":{"type":"Point","coordinates":[37.6392011,55.6978376]},"properties":{"id":"ch_v2_13","object_type":"heat_chamber","variant_id":"v2","diameter":200,"degree":3,"cost":3000000.0}},{"type":"Feature","geometry":{"type":"Point","coordinates":[37.6386338,55.6978998]},"properties":{"id":"ch_v2_14","object_type":"heat_chamber","variant_id":"v2","diameter":400,"degree":4,"cost":5000000.0}},{"type":"Feature","geometry":{"type":"Point","coordinates":[37.6398691,55.6997703]},"properties":{"id":"tn_v2_1","object_type":"technical_node","variant_id":"v2"}},{"type":"Feature","geometry":null,"properties":{"id":"summary_v2","object_type":"variant_summary","variant_id":"v2","rank":3,"construction_cost":2.53330169E8,"chamber_construction_cost":5.2E7,"existing_chamber_tie_in_count":0,"existing_chamber_tie_in_cost":0.0,"unconnected_penalty":0.0,"calculated_cost":2.53330169E8,"new_network_length":1799.15,"score":12.491,"unconnected_oks_ids":[]}}]}